index,canonical_name,status,index_name,latdeg,latmin,londeg,lonmin,type,note,instances,aka,latitude,longitude
1,Ab-i-Istada,,Ab-i-Istada,,,,,water,,"138, 153, 153b",,,
2,Ab-i-Khan,,Ab-i-Khan,,,,,,? Rabat-i Sarhang,"67b, 69b",,,
3,Aba Meadow,,Aba Meadow,,,,,,Kabul,"126, 126b",,,
4,Abapur,,Abapur,,,,,,? Chandwar,358,,,
5,Abuha,,Abuha,,,,,,2 mi. sw of Barikot on Swat River,236,,,
6,Abyar Meadow,,Abyar Meadow,,,,,,Samarkand,39,,,
7,Adampur,,Adampur,,,,,,? between Kalpi and Kora,"361b, 379",,,
8,Adinapur,,Adinapur,,,,,,near mod. Jalalabad,"131b—132b, 137b, 134, 134b, 214, 249",,,
9,Adusa,,Adusa,,,,,,? Etawah,358b,,,
10,Islamic Republic of Afghanistan,x,Afghanistan,,,,,region,,"128, 131b, 138, 141, 147, 225",,,
11,Agra,x,Agra,27,10,78,0,,,"256, 256b, 267-269, 274, 291b, 292b, 294, 294b, 296, 298, 298b, 299b, 304b, 309b, 325b, 326, 328b, 330-31, 335b, 339, 341b, 344b, 345, 347, 348, 351, 354, 356a-358, 362, 364b, 375, 377, 380",,27.1666666667,78
12,Ahangaran,,Ahangaran,,,,,water,,"54b, 98b, 99b, 103b",,,
13,Ahār,x,Ahar,24,35,73,44,,,297b,,24.5833333333,73.7333333333
14,Aībak,x,Aibak,36,12,68,1,,,"121, 308b",,36.2,68.0166666667
15,Ayvaj,x,Aivadzh,36,59,68,2,,,"56b, 68, 120b, 124b",,36.9833333333,68.0333333333
16,Yilgāh-e Ājar,x,Ajar,35,22,67,30,,,"120b, 121, 122, 122b, 126b, 155, 184b",,35.3666666667,67.5
17,Akhsi,?,Akhsi,40,51,71,22,,,"4b, 5, 6, 7b, 9, 13b, 17, 17b, 18, 23, 25, 31b, 32, 48b, 51b, 52, 52b, 54b, 61b–63b, 72, 72b, 74, 74b, 77, 78, 103b, 104, 108, 109-111, 113b, 114, 117-18, 119, 234, 234b",,40.85,71.3666666667
18,Akriyawa,,Akriyawa,,,,,,?,254b,,,
19,Alah Sāy,x,Ala Say,34,53,69,43,,,"139b, 140",,34.8833333333,69.7166666667
20,Ala Tagh,,Ala Tagh,,,,,,? s of Qalat,158b,,,
21,Alayskiyy Khrebet,x,Alay Mountains,,,,,mountain,,80,,,
22,Alayluq Orchin,,Alayluq Orchin,,,,,region,? Fergana,104,,,
23,Alghu Tagh,,Alghu Tagh,,,,,mountain,Taligan,35,,,
24,Ali Masjid,x,Ali Masjid,34,12,71,16,,,"233, 243b, 244, 253",,34.2,71.2666666667
25,Aliabad,,Aliabad,,,,,,? Samarkand,86,,,
26,Alīngār Darah,x,Alingar,34,50,70,21,region,,"133, 154, 251",,34.8333333333,70.35
27,‘Alīsheng,x,Alishang,34,47,70,6,region,,"133, 154, 214, 251",,34.7833333333,70.1
28,Olmaliq,x,Almalyk,,,,,,"mod. Kuldzha, Turkistan",1b,Almalyk,,
29,‘Alāqahdārī-ye Almār,x,Almar,35,50,64,32,,,184b,,35.8333333333,64.5333333333
30,Almaty,x,Almatu,43,15,76,57,,mod. Vernyy,1b,Vernyy,43.25,76.95
31,Alwar,x,Alwar,27,34,76,36,,,"308, 325b—327, 381",,27.5666666667,76.6
32,Ambahār River,x,Ambahar,34,30,71,30,water,,221,,34.5,71.5
33,Ambāla,x,Ambala,30,21,76,50,,,262,,30.35,76.8333333333
34,Amia,,Amia,,,,,,? Dara-i Nur,249b-250a,,,
35,Amroha,x,Amroha,28,55,78,28,,,380,,28.9166666667,78.4666666667
36,Anabar Koh,,Anabar Koh,,,,,mountain,Konduz,35b,,,
37,Republic of Turkey,x,Anatolia,,,,,region,,"129, 264, 311, 319, 364",,,
38,Andarab,,Andarab,,,,,water,,"29b, 123, 123b, 125b, 128, 130b, 140b, 238, 332b",,,
39,Anderana,,Anderana,,,,,,? on the Sohan,230b—231b,,,
40,Andijon,x,Andizhan,40,48,72,23,,,"(2-10), 13-14b, 15b, 16b-18, 25, 27b, 31b, 32, 32b, 34, 37b—39, 5lb—55, 58b, 59b, 61-62, 63, 63b, 64b, 65b-66b, 67b, 69b, 70b—72, 73b—74b, 77, 78, 79b, 94, 97b, 104-105b, 106b, 107b, 108, 109, 110-111, 112b, 119, 122b, 131b, 140b, 144b, 156, 176, 200b, 234, 236, 352b",,40.8,72.3833333333
41,Andkhōy,x,Andkhui,36,57,65,7,,,"26, 122, 165, 168, 175, 204b",,36.95,65.1166666667
42,Anwāra,x,Anwar,27,13,78,11,,mod. Anwara,"331b, 357, 358",Anwar,27.2166666667,78.1833333333
43,Ao Dara,?,Ao Dara,35,48,66,67,,,"130b, 155, 202b",,35.8,67.1166666667
44,Aqar Tozi,,Aqar Tozi,,,,,,? Zaamin,19,,,
45,Aq Kotal,,Aq Kotal,,,,,,Samarkand-Khodzhent,69,,,
46,Aq Qachghay Yaylagh,,Aq Qachghay Yaylagh,,,,,,Ura-Tyube,13,,,
47,Aq Saray Meadow,,Aq Saray Meadow,,,,,campground,"Karabagh, Kabul",126,,,
48,Aq Su,,Aq Su,,,,,water,Ura-Tyube,18,,,
49,Arabia,x,Arabia,,,,,region,,279,,,
50,Archakent,,Archakent,,,,,,? near Kassan,72,,,
51,Arkhian Fort,,Arkhian Fort,,,,,fort,? Fergana,73,,,
52,Armian,,Armian,,,,,,? Fergana,70b,,,
53,Arrah,x,Arrah,25,34,84,40,,,"368b, 369",,25.5666666667,84.6666666667
54,Arys,,Arys,,,,,water,N of Tashkent,8,,,
55,Ashpara,,Ashpara,,,,,,Mughulistan,10,,,
56,Astarabad,,Astarabad,,,,,region,,"26, 26b, 36, 41, 41b, 42b, 57b, 58, 165, 165b, 166b, 168, 171, 171b, 173, 279, 286",,,
57,Astarob,,Astarob,,,,,,?,162b,,,
58,Astrakhan,x,Astrakhan,,,,,,,164,,,
59,Atar,,Atar,,,,,,? Laghman,"134, 214b, 249b, 250b",,,
60,Atraulī,x,Atrauli,28,2,78,17,,,331,,28.0333333333,78.2833333333
62,Ay Tughdi,,Ay Tughdi,,,,,,? on the Baran,"161b, 162",,,
63,Aysh Hill,,Aysh Hill,,,,,,Andizhan,"66, 106",,,
64,Republic of Azerbaijan,x,Azerbaijan,,,,,region,,"28, 139, 175b, 291b",,,
65,Baba Hasan Abdal,,Baba Hasan Abdal,,,,,shrine,Kandar,"208b, 210b",,,
66,Baba Ilahi,,Baba Ilahi,,,,,,Herat,163b,,,
67,Baba Kara,,Baba Kara,,,,,,Bajaur,218b,,,
68,Baba Khaki,,Baba Khaki,,,,,,Herat,"13, 204b",,,
69,Baba Luli,,Baba Luli,,,,,,Kabul,198a,,,
70,Baba Tükäl's Langar,,Baba Tükäl’s Langar,,,,,shrine,Andizhan,108a,Langar,,
71,Badakhshan,,Badakhshan,,,,,region,,"1b, 10b, 11b, 12b, 26, 26b, 27b, 28b, 122, 125b, 129, 130, 132, 139b, 140b, 154b—156, 181, 183b, 202b, 203, 213, 213b, 218b, 244, 244b, 270, 327",,,
72,Badam Chashma,,Badam Chashma,,,,,,? between Butkhak and Barikao,"132, 145, 242, 251b",,,
73,Badghis,,Badghis,,,,,region,N of Herat,"172b, 184b, 185, 192",,,
74,Badpush Pass,x,Badpakh Pass,34,38,69,50,,,"133, 215, 249",,34.6333333333,69.8333333333
75,Badrao,,Badrao,,,,,region,mod. Tagao,"133, 140, 249",,,
76,Baghat-i-Jam,,Baghat-i-Jam,,,,,,? Gulbahar,241,,,
77,Baghlan,,Baghlan,,,,,region,,237b,,,
78,Bahar,,Bahar,,,,,,,"244b, 245",,,
79,Jhelum River,x,Bahat,,,,,river,,"224b, 225, 273","Jhelum River, Jhelum",,
80,Bahlolpur Kalān,x,Bahlolpur,31,42,73,18,,,255,,31.7,73.3
81,Bahraigh,x,Bahraich,27,35,81,36,,,"292b, 370b",,27.5833333333,81.6
82,Dara-i Bai,?,"Bai, Dara-i",35,42,66,3,,,184b,,35.7,66.05
83,Bajaur,,Bajaur,,,,,region,,"131b, 134, 134b, 140b, 216b, 217-219b, 220b, 221, 222, 234b, 236b, 237, 243b, 249b, 250, 250b, 269, 277-78, 279b, 286, 286b",,,
84,Balkh,x,Balkh,36,46,66,53,,,"8b, 29, 36, 41, 42, 45, 57, 68, 122, 129, 130, 136, 139b, 163b, 165b, 167, 173, 175b, 183b, 184b, 185, 187b, 218b, 227, 251b, 256, 261, 291b, 308b, 347, 348, 349, 350, 380b",,36.7666666667,66.8833333333
85,Ballooa,,Ballooa,,,,,,Benares,364b,,,
86,Balinath,,Balinath,,,,,mountain,,254b,,,
87,Dara-i Bam,?,"Bam, Dara-i",35,50,63,28,,,184b,,35.8333333333,63.4666666667
88,Bāmyān,x,Bamian,34,49,67,49,,,"58b, 120b, 130b, 136, 162b, 183b, 195b, 242",,34.8166666667,67.8166666667
89,Banas,,Banas,,,,,water,,273,,,
90,Band-i-Salar,,Band-i Salar,,,,,,? Andizhan,"32, 72",,,
91,Bāngarmau,x,Bangarmau,26,54,80,13,,,338,,26.9,80.2166666667
92,Bangash,,Bangash,,,,,region,,"14, 131, 132b, 139b, 145, 146b, 147b, 148, 161, 225, 239b",,,
93,Bannu,,Bannu,,,,,region,,"128, 138, 146b, 147b, 149, 233",,,
94,Banūr,x,Banur,30,34,76,47,,,261b,,30.5666666667,76.7833333333
95,Baqishliq Valley,,Baqishliq Valley,,,,,,between Chashma-i-Tara and Gardez,238b,,,
96,Bara,,Bara,,,,,water,,"146, 243b",,,
97,Bara Koh,,Bara Koh,,,,,mountain,E of Osh,"2b, 3",,,
98,Barak,,Barak,,,,,,? near Barmal,149b,,,
99,Barakistan,,Barakistan,,,,,mountain,s of Zurmat,139b,,,
100,Baran River Banks,,Baran,,,,,region,Kabul River below junction with the Panjshir,"202, 240a",,,
101,Baran,,Baran,,,,,river,,"125, 133a—134, 135b, 142a—143, 154b, 161b, 162, 202, 248b, 240, 249a",,,
102,Bari,x,Bari,26,39,77,36,,,"273b, 285b, 330b",,26.65,77.6
103,Barikav,x,Barikao,34,19,70,43,,,"242b, 245b, 251b",,34.3166666667,70.7166666667
104,Barmal,,Barmal,,,,,region,,"128, 131, 139b, 146b, 148, 148b, 149b",Farmul,,
105,Bayāna,x,Bayana,26,54,77,17,,,"273b, 274, 291b, 292, 294, 297b, 299, 300, 302, 303-4, 307b, 309-10, 311, 318b, 325b, 327, 328, 328b, 342, 343",,26.9,77.2833333333
106,Beās River,x,Beas,,,,,water,,"258, 273",,,
107,Bēktut,x,Begtut,34,33,68,56,,,157b,,34.55,68.9333333333
108,Bal Chirāgh,x,Belcheragh,35,50,65,14,,,"41b, 165b",,35.8333333333,65.2333333333
109,Varanasi,x,Benares,25,20,83,0,,,"363b, 364b, 383, 462b",,25.3333333333,83
110,Bengal,x,Bengal,,,,,region,,"271-73, 278b, 282b, 283, 355, 357, 368-69, 376",,,
111,Beshkent,,Beshkent,,,,,,Samarkand,"94, 94b",,,
112,Bihsūd,x,Besud,34,27,70,27,,,220b,,34.45,70.45
113,Betwa,,Betwa,,,,,water,,335b,,,
114,Bhander,x,Bhander,25,44,78,45,,,"284, 332b, 336",,25.7333333333,78.75
115,Bhasāwar,x,Bhasawar,27,2,77,3,,,"310, 328, 198",Bhusawar,27.0333333333,77.05
116,Bhera,x,Bhera,32,29,72,55,,,"145, 222-23, 224—26b, 228, 228b, 229b, 231-32, 235b, 248b, 259b, 269-270b, 275b, 292, 304b, 345, 361b",,32.4833333333,72.9166666667
117,Vidisha,x,Bhilsa,22,30,77,50,,,"272, 335b",Bhilsan,22.5,77.8333333333
118,Bhujpur,,Bhujpur,,,,,,between Bihiya and Buxar,367,,,
119,Bigram,,Bigram,,,,,,Peshawar,"145b, 146, 232b, 233, 253-54",,,
120,Bihar,,Bihar,,,,,region,,"270, 270b, 292, 293, 356b, 366b-68b, 370, 371, 374b, 375b, 376, 377",,,
121,Bihiya,x,Bhiya,25,33,84,28,,,367,,25.55,84.4666666667
122,Bihzādī,x,Bihzadi,24,42,69,2,,,"235, 246b, 247, 248",,24.7,69.0333333333
123,Bikhrata,,Bikhrata,,,,,,? on the Jaxartes,"72, 109",,,
124,Bila,,Bila,,,,,,? Multan,150b,,,
125,Bilaur,,Bilaur,,,,,,? Kalpi,380,,,
126,Bimrugiri,,Bimrugiri,,,,,,?,254b,,,
127,Bisut,,Bisut,,,,,,,228b,,,
128,Bolan,,Bolan,,,,,,?,133,,,
129,Bödänä Meadow,,Bödänä Meadow,,,,,,Samarkand,"48, 82b",,,
130,Börkä,,Börkä,,,,,,Yar Yaylagh,"55b, 78b",,,
131,Budaun,x,Budaun,28,4,79,10,,,"168b, 329",,28.0666666667,79.1666666667
132,Bukhara,x,Bukhara,39,47,64,26,,,"3b, 5, 11, 19b, 21b, 22b, 30, 36-39, 45, 45b, 48b-49b, 69, 76, 78b, 79b, 86, 129, 131b, 132, 301b",,39.7833333333,64.4333333333
133,Buli,,Buli,,,,,,?,293,,,
134,Burhanpur,,Burhanpur,,,,,,"Bhuranpur, near Chanderi","304b, 333, 336",Bhuranpur,,
135,Lashkar Gāh,x,Bust,31,30,64,22,,,"57b, 165b",,31.5,64.3666666667
136,Dasht-e Butkhāk,x,Butkhak,34,30,69,21,,,"242, 360",,34.5,69.35
137,Buxar,x,Buxar,25,35,83,59,,,"292b, 366",,25.5833333333,83.9833333333
138,Cain’s Tomb,,Cain's Tomb,,,,,,Kabul,246,,,
139,Chachauli,x,Chachauli,26,31,79,33,,,361b,,26.5166666667,79.55
140,Chaghanian,,Chaghanian,,,,,region,,"26b, 56, 56b, 81, 120b, 265",,,
141,Fayrōz Kōh,x,Chagcharan,34,32,65,15,,,"172b, 192b",,34.5333333333,65.25
142,Chakman Saray,,Chakman,,,,,,vicinity of Andkui,"26, 165, 169",Chakman,,
143,Chalak Meadow,,Chalak Meadow,,,,,,Kabul,"126b, 128b",,,
144,Chaltu Meadow,,Chaltu Meadow,,,,,,Chaghanian,81,,,
145,Chambhal,,Chambhal,,,,,water,,"273, 285b, 332, 340, 344",,,
146,Champaran,,Champaran,,,,,region,,293,,,
147,Chanaran,,Chanaran,,,,,,"40 mi. nw of Mashhad, Iran",165,,,
148,Chanderi,x,Chanderi,24,43,78,9,,,"169b, 272, 324, 331b, 332b, 333, 333b, 334b, 335b, 339",,24.7166666667,78.15
149,Fīrozābād,x,Chandwar,27,9,78,23,,"mod. Firozabad, Agra","274, 299b, 315, 328b, 331b, 358",,27.15,78.3833333333
150,Chaparghatta,,Chaparghatta,,,,,,Kalpi,361b,,,
151,Türkmenabat,x,Chardzhou,39,5,63,35,,,58b,,39.0833333333,63.5833333333
152,Charkh,x,Charkh,33,48,68,56,,,"137, 178",,33.8,68.9333333333
153,Chash,,Chash,,,,,,? Gulbahar,202,,,
154,Chashma-i-Tara Pass,,Chashma-i-Tara Pass,,,,,mountain pass,"Kabul-Gardez, Pers. only in 238b","238b, 239b",,,
155,Chatsu,x,Chatsu,26,36,75,57,,,293,,26.6,75.95
156,Chaturmuk,,Chaturmuk,,,,,,Sikandarpur,370b,,,
157,Chāpra,x,Chaupara,25,47,84,43,,"eq Chapra, near Oudh","376, 377",Chaupara,25.7833333333,84.7166666667
158,Chaupara,,Chaupara,,,,,mountain pass,on the Kurram,"131, 148, 148b",,,
159,Chausa,x,Chausa,25,31,83,54,,near Bhasawar,"365b, 366, 328",,25.5166666667,83.9
160,Chaychaktū,x,Chechaktu,35,43,64,6,region,place,"184b, 187b",,35.7166666667,64.1
161,Chihil Dukhtarān,x,"Chehil Dukhtaran, Herat",35,6,62,19,,Herat?,"185, 188",,35.1,62.3166666667
162,Chenāb River,x,Chenab,,,,,water,,"223b, 224b, 225, 228, 255, 273, 285b, 365b",,,
163,Cheragh Meadow,,Cheragh Meadow,,,,,,Herat,191b,,,
164,Cheraghdan,,Cheraghdan,,,,,,? e of Chaghcharan,193,,,
165,Asadābād,x,Chighan Sarai,34,53,71,9,,,"134, 134b, 144",,34.8833333333,71.15
166,Chihil Qolba,,Chihil Qolba,,,,,,? near the Baran,248b,,,
167,Childukhtaran,,Childukhtaran,,,,,,Andizhan,"66, 104b",,,
168,People’s Republic of China,x,China,,,,,region,,"129, 7, 47b, 101b, 102b, 103, 129",Cathay,,
169,Gaḏō Chīnah,x,China Fort,34,41,69,42,,?,241,,34.6833333333,69.7
170,Chiniot,x,Chiniot,31,43,73,0,,,"223b, 224b",,31.7166666667,73
171,Chir,,Chir(chik),,,,,,water,"8b, 13, 17, 19, 19b, 22b",Chirchik,,
172,Chitar,,Chitar,,,,,,? on the Ghagar,261b,,,
173,Chittaurgarh,x,Chitor,24,53,74,39,,,"272, 273b, 335b, 343, 345",,24.8833333333,74.65
174,Chitu,,Chitu,,,,,,? Logar,145,,,
175,Chotiali,,Chotiali,,,,,,? Duki,152,,,
176,Chunār,x,Chunar,25,7,82,53,,,"362b, 363b—365, 378, 378b",,25.1166666667,82.8833333333
177,Churghatu,,Churghatu,,,,,,? Bajaur,221,,,
178,Ctesiphon,,Ctesiphon,,,,,,Iraq,49,,,
179,Dabusi,,Dabusi,,,,,,Zeravshan,"22b, 78b, 87b",,,
180,Dahana,?,Dahana,35,54,68,30,,,"124b, 126, 155b, 184",,35.9,68.5
181,Dakhat,?,Dakhat,39,42,69,15,,,"96b, 97, 99, 99b",,39.7,69.25
182,Dalmau,x,Dalmau,26,2,81,4,,,"301, 302b, 377b, 378, 379",,26.0333333333,81.0666666667
183,Damghan,,Damghan,,,,,,Iran,"165b, 167, 345b, 347",,,
184,Kōtal-e Dandān Shikan,x,Dandan Shikan Pass,35,16,67,37,,,183b,,35.2666666667,67.6166666667
185,Dara Gaz,,Dara Gaz,,,,,,,6b,,,
186,Dargham,,Dargham,,,,,water,Samarkand,"45, 78b, 79",,,
187,Darūnṯah,x,Darunta,34,29,70,22,,,"249, 249b",,34.4833333333,70.3666666667
188,Darwaza,,Darwaza,,,,,road,?,221,,,
189,Dasht,,Dasht,,,,,region,,"145, 148-150b, 151b, 533",,,
190,Dasht-i-Shaikh,,Dasht-i-Shaikh,,,,,,? Ghorband,"135b, 136",,,
191,Dawartin,,Dawartin,,,,,,? Kafiristan,249,,,
192,Deccan,x,Deccan,,,,,region,,271,,,
193,Deh-i-Afghan,,Deh-i-Afghan,,,,,village,outskirts of Kabul,"216, 237b",,,
194,Bāsawul,x,Deh-i-Ghulaman,34,15,70,52,village,eq mod. Basaul,244b,,34.25,70.8666666667
195,Delhi,x,Delhi,28,39,77,13,,,"256, 256b, 261, 262, 267b, 268, 270b, 273, 292, 294, 295b, 296, 298, 311b, 325b, 329b, 345",,28.65,77.2166666667
196,Derāpur,x,Derapur,26,25,79,47,,,361b,,26.4166666667,79.7833333333
197,Dhār,x,Dhar,22,36,75,18,,,46b,,22.6,75.3
198,Dholpur,x,Dholpur,26,42,77,54,,,"273b, 291b, 294, 298b-299b, 304b, 305, 312b, 330, 330b, 333b, 339, 341b, 344, 353b, 354, 356b, 358",,26.7,77.9
199,Dinkot,?,Dinkot,32,59,71,34,,circa,"131,	148, 223b, 235b",,32.9833333333,71.5666666667
200,Dīpālpur,x,Dipalpur,30,40,73,39,,,"132,	261, 273b, 292, 300b, 325, 326",,30.6666666667,73.65
201,Diri Pass,,Diri Pass,,,,,mountain pass,,133,,,
202,Diurin Narrows,,Diurin Defile,,,,,mountain pass,w of Kabul See also Diurin Meadow,"128, 247",Diurin Defile,,
203,Diurin Meadow,,Diurin Meadow,,,,,,w of Kabul See also Diurin Defile,130,,,
204,Diyul,,Diyul,,,,,,? near Samarkand,89,,,
205,Doab,,Doab,,,,,region,,"257, 263b, 292, 296, 297, 304, 311b, 315, 325b",,,
206,Dōshī,x,Dowshi,35,57,68,41,,,"29b, 123b",,35.95,68.6833333333
207,Robat-i-Dudar,,"Dudar, Robat-i",,,,,,,167,,,
208,Dugdugi,,Dugdugi,,,,,,?,"362, 362b",,,
209,Dughaba,,Dughaba,,,,,water,Konduz,136,,,
210,Duki,x,Duki,30,9,68,34,,,"138, 141, 150, 152, 225",,30.15,68.5666666667
211,"Una, Himachal Pradesh",x,Dun,31,28,76,16,,"Una Dun, Hoshiarpur","257, 257b, 260-61b",,31.4666666667,76.2666666667
212,Dūngarpur,x,Dungarpur,23,53,69,50,,,324,,23.8833333333,69.8333333333
213,Dūrnāmah,x,Dur Nama,35,29,69,50,,,"135b, 248b",,35.4833333333,69.8333333333
214,Dushanbe,,Dushanbe,,,,,,,347,,,
215,Jizzax,x,Dzhizak,40,6,67,50,,,"13b, 95b, 96",,40.1,67.8333333333
216,Arab Republic of Egypt,x,Egypt,,,,,region,,50,,,
217,Ekri Yar,,Ekri Yar,,,,,,?,125b,,,
218,Etāwah,x,Etawah,26,46,79,1,,,"294, 298b, 299b, 305b, 327, 328b, 358b, 359, 380, 382",,26.7666666667,79.0166666667
219,Fakhruddin Ölümi,,Fakhruddin Ölümi,,,,,,? Murghab,184b,,,
220,Fulōl-e Pā’īn,x,Falul,36,11,69,9,,,"35, 122b",,36.1833333333,69.15
221,Fan,,Fan,,,,,water,,"81b, 82",,,
222,Farkat,,Farkat,,,,,,? Fergana,"96b, 116",,,
223,"Fatehpur, West Bengal",,Fatehpur,,,,,,near Chapra or towards Rapri,"377, 377b, 358, 380b",,,
224,Fergana,,Fergana,,,,,region,,"1b—5b, 6b, 8, 10, 12b, 32, 45, 48b, 54, 104, 108, 120, 129, 140b, 181",,,
225,Fīrozpur Jhirka,x,Firozpur,27,45,76,58,,,"327, 327b",,27.75,76.9666666667
226,Gabarik,,Gabarik,,,,,,Kafiristan,131b,,,
227,Gambhir,,Gambhir,,,,,water,,339,,,
228,Gandak,,Gandak,,,,,water,,"273, 368",,,
229,Gandumak,x,Gandamak,34,18,70,2,,,"233, 245b, 252",,34.3,70.0333333333
230,Ganges River,x,Ganges,,,,,water,,"273, 278b, 294, 299, 307b, 329, 331, 336, 350, 350b, 352b, 355b, 362b, 363, 365, 365b, 366b, 368b, 370, 371, 371b, 377b, 379",,,
231,Gangota Fort,,Gangota Fort,,,,,,Kangra district,"257, 260b",,,
232,Gardez,x,Gardez,33,37,69,9,,,"139, 145, 238, 238b, 239b, 295b",,33.6166666667,69.15
233,Garg,,Garg,,,,,,? between Gandamak and Quratu,233b,,,
234,Garm Chashma,,Garm Chashma,,,,,water,? on the Kabul,"243, 252b",,,
235,Gava,?,Gava,41,7,71,7,,,"116, 117, 117b",,41.1166666667,71.1166666667
236,Gazargah,,Gazargah,,,,,,Herat,191,,,
237,Ghaggar,,Ghaggar,,,,,water,,"261b, 262",,,
238,Ghain,,Ghain,,,,,,? Bajaur,162,,,
239,Gharjistan,,Gharjistan,,,,,region,upper Murghab,"141, 192b",,,
240,Ghazīpur,x,Ghazipur,25,36,83,36,,,"282, 296b, 307b, 365, 377",,25.6,83.6
241,Namangan,,Ghazna Namangan,,,,,,eq mod Namangan?,73,,,
242,Ghazni,x,Ghazni,33,33,68,35,,,"128, 131, 137b—139, 141b, 142, 144-45, 152b-153b, 162, 162b, 187b, 192, 192b, 202b, 207, 215, 224b, 225, 234, 234b, 252, 260, 270b, 295b, 296, 311, 360",,33.55,68.5833333333
243,Ghiyaswal,,Ghiyaswal,,,,,,?,232,,,
244,Ghorband,?,Ghorband,35,6,68,10,,,"125, 130b, 135b, 136, 183b, 197, 197b",,35.1,68.1666666667
245,Ghori,,Ghori,,,,,,See also Dahana,"124b, 184, 242, 308b",,,
246,Ghur,,Ghur,,,,,region,,"128, 141, 172",,,
247,Ghurām,x,Ghuram,30,7,76,29,,,295b,,30.1166666667,76.4833333333
248,Ghijduwon,x,Gizhduvan,40,7,64,15,,,175b,,40.1166666667,64.25
249,Godna,x,Godna,25,47,84,39,,,"374b, 376",,25.7833333333,84.65
250,Gogra,,Gogra,,,,,water,,"273, 338, 338b, 376",,,
251,Gomati,,Gomati,,,,,water,,"273, 338, 364b, 378b, 379",,,
252,Gosfand Lyar Road,,Gosfand Lyar Road,,,,,,Bannu,148,,,
253,Gujarāt,x,Gujarat,,,,,region,,"270b, 271, 282b, 301b, 302",,,
254,Gul Bahār,x,Gulbahar,35,8,69,18,,,"143, 202, 240b, 241",,35.1333333333,69.3
255,Gulkana,,Gulkana,,,,,,? Kabul,"128, 128b, 233b",,,
256,Gumal River,x,Gumal,32,20,68,51,water,,"149b, 150",,32.3333333333,68.85
257,Gumbazak Pass,,Gumbazak Pass,,,,,mountain pass,,183b,,,
258,Gurgan,,Gurgan,,,,,water,,165,,,
259,Gurh Kattri,,Gurh Kattri,,,,,,Peshawar,"145b, 146, 232b, 233",,,
260,Gurzuwan,,Gurzuwan,,,,,,,"41, 122, 141, 184b",,,
261,Gwalior,x,Gwalior,26,12,78,9,,,"268, 268b, 273b, 291b, 292b, 294, 298b, 304, 304b, 309b, 312b, 315, 339, 340-43b, 381b, 382",,26.2,78.15
262,Ha Darwesh Plain,,Ha Darwesh Plain,,,,,,between Khodzhent and Kanibadam,"4b, 98",,,
263,Haft Bachcha Pass,,Haft Bachcha Pass,,,,,,Hindu Kush,130b,,,
264,Hājīpur,x,Hajjipur,25,41,85,12,,,374b,,25.6833333333,85.2
265,Hajji Tarkhan,,Hajji Tarkhan,,,,,,Astrakhan,164,,,
266,Haldī Rāmpur,x,Haldi,26,6,83,56,,,"370b, 371, 374b",,26.1,83.9333333333
267,Halwa Chashma,,Halwa Chashma,,,,,water,?,165b,,,
268,Hamtatu Pass,,Hamtatu Pass,,,,,mountain pass,? Punjab,224,,,
269,Hangu,x,Hangu,33,32,71,4,,,"146b, 147b",,33.5333333333,71.0666666667
270,Harwar,,Harwar,,,,,,?,261,,,
271,Hashnaghar,,Hashnaghar,,,,,,ne of Peshawar,"131b, 221, 242b, 243b, 275b, 276, 279b, 281",,,
272,Hasht Yak,,Hasht Yak,,,,,,? Fergana,98,,,
273,Haswa,x,Haswa,25,53,80,55,,,362,,25.8833333333,80.9166666667
274,Hati,,Hati,,,,,,? Punjab,232,,,
275,Hazarasp,,Hazarasp,,,,,,Khwarazm,29,,,
276,Helmand,,Helmand,,,,,water,,"136, 192b",,,
277,Herāt Province,x,Herat,34,20,62,10,region,,"2b, 12b, 13, 21, 85, 155, 163b, 164, 166, 167b, 168b, 170, 170b, 172b, 173, 177b, 178, 179b, 180, 183, 185, 187b, 188-90, 191—92b, 197, 204b, 205, 206b, 207, 207b, 213, 339, 345b, 347, 347b",,34.3333333333,62.1666666667
278,Hindū Kush,,Hindu Kush,,,,,mountain,,"26b, 28b, 124, 128, 130, 133, 142, 170, 223, 270b, 272b",,,
279,Republic of India,x,Hindustan,,,,,region,,"4b, 13b, 22, 26b, 45b-46b, 97, 129, 131, 131b, 133b, 135, 135b, 138-41; first invasion 145ff., 159b, 168, 168b, 169b, 207b; invasion planned 213—14b, 219; invasion 222-33, 235, 246; last invasion 251b ff.; description of 270b ff.; revenues 292 ff; 294b, 295b, 296, 298, 299b, 300, 301, 303, 303b, 305, 309, 320b, 326, 328, 329b, 332b, 335b, 340b-341b, 345, 351b, 357, 357b, 359, 359b, 360b, 380b",Hindustan,,
280,Hisor,x,Hissar,38,31,68,35,,,"9, 20b, 23b, 26b, 27b, 28, 30, 30b, 32b—34, 35b, 36, 37b, 38, 39b, 42b, 56b-58b, 63b-64b, 68, 69, 81-82, 90b, 99, 99b, 122-23, 129, 140b, 144b, 156, 165b, 166b, 167, 173, 265, 347-348b, 356b",Hissar,38.5166666667,68.5833333333
281,Hisar,x,Hissar Firoza,29,10,75,44,,,"263, 292, 297,",,29.1666666667,75.7333333333
282,Hormoz,x,Hormuz,,,,,,Persian Gulf,4b,,,
283,Huni,,Huni,,,,,,? Gardez,240,,,
284,Hupian Pass,,Hupian Pass,,,,,,? Kabul,"125, 345b",,,
285,Ikhtiyaruddin Fort,,Ikhtiyaruddin Fort,,,,,,"Herat, eq Ala Qorghan","197, 205b",Ala Qorghan,,
286,Iki Su Arasi,,Iki Su Arasi,,,,,region,eq Rabatak Orchin qv,"52b, 64b, 70b, 72","Rabatak Orchin,Rabatak,Rabat,Robat",,
287,Ilak,,Ilak,,,,,region,,"120, 120b, 124b",,,
288,Ilamish,,Ilamish,,,,,,vicinity of Andizhan,"65, 71",,,
289,Ilan Otï,,Ilan Otï,,,,,,? Samarkand,95b,,,
290,Inderi,,Inderi,,,,,,"15 mi n of Karnal, Punjab",256b,,,
292,Indian Ocean,x,Indian Ocean,,,,,water,,273,,,
293,Indus River,x,Indus,,,,,water,,"131, 136, 146, 146b, 148, 150b-l 52b, 222b, 223b, 231b, 232, 254, 254b, 272—73b, 275, 296",,,
294,Iraj,,Iraj,,,,,,? between Kalpi and Bhander,332b,,,
295,Republic of Iraq,x,Iraq,,,,,region,western Iran,"10, 10b, 26b, 28, 28b, 29b, 129, 142b, 165, 166b, 169, 173, 175b, 177, 180, 182, 210b, 294, 305, 329b, 347, 369",,,
296,Iron Gate,x,Iron Gates,,,,,,see also Quhlugha,"26b, 124, 265","Quhluga, Qahalgha",,
297,Isfara,x,Isfara,40,7,70,38,,,"3b, 30b, 71b, 78",,40.1166666667,70.6333333333
298,Isfedak Fort,,Isfedak Fort,,,,,,?,"82b, 83b",,,
299,Īshkamish,x,Ishkamish,36,23,69,19,,,"35, 122b, 156, 181, 202b",,36.3833333333,69.3166666667
300,Istālif,x,Istalif,34,53,69,1,,,"136, 136b, 143, 240, 246,",,34.8833333333,69.0166666667
301,Istarghij,?,Istarghij,34,53,69,6,,,"136, 157b, 215b, 247b-248",,34.8833333333,69.1
302,Itmak Dabani,,Itmak Dabani,,,,,mountain,between Samarkand and Shahrisabz,49,,,
303,Jigdalaī,x,Jagdalak,34,26,69,46,,,"145, 214, 245b",,34.4333333333,69.7666666667
304,Kanpur,x,Jajmau,,,,,,mod. Kanpur,301,Jajmau,,
305,Jalesar,x,Jalesar,27,28,78,19,,?,"299b, 331b, 377b",,27.4666666667,78.3166666667
306,Jalisar,,Jalisar,,,,,,,356b,,,
307,Torbat-e Jām,x,Jam,35,15,60,37,,,"180b, 347b, 354",Turbat-i-Jam,35.25,60.6166666667
308,Jamrud,x,Jam,34,0,71,22,,,"145b, 146, 244",Jamrud,34,71.3666666667
309,Jandol,x,Jandol,34,49,71,45,,,"216b, 219, 219b",,34.8166666667,71.75
310,Yaylāq-e Jangalak,x,Jangalak,34,54,68,31,,,"160, 161b, 195b",,34.9,68.5166666667
311,Jaunpur,x,Jaunpur,25,44,82,41,,,"173b, 270b, 293, 296b, 303, 307, 307b, 354b, 364b, 365, 370, 371, 375b, 378",,25.7333333333,82.6833333333
312,Jaxartes,,Jaxartes,,,,,water,Khodzhent River,"1b, 2, 4, 4b, 6, 7b, 17, 72, 74, 98, 101, 103b, 104, 108, 109, 111",,,
313,Jhakan,,Jhakan,,,,,,Etawah,358,,,
314,Jhelum,x,Jhelum,32,56,73,47,,mod. town 32-56 73-47; old town on left bank of river,254b,,32.9333333333,73.7833333333
315,Jomandna,,Jomandna,,,,,,?,361,,,
316,Jud,,Jud,,,,,mountain,Salt Range,"223, 224, 254b",,,
317,Judak,,Judak,,,,,,? Samarkand,95b,,,
318,Jumna,,Jumna,,,,,water,,"263, 267b, 268, 273, 299b, 300b, 339, 344b, 356, 357, 358b, 361, 397,",,,
319,Juy-i-Shabi,,Juy-i-Shabi,,,,,water,? near Adinapur,"145b, 233, 242b, 244, 249b",,,
320,Qubodiyon,x,Kabadian,37,25,68,12,,,"120b, 356b",,37.4166666667,68.2
321,Kabud,,Kabud,,,,,,Samarkand,"44, 59b",,,
322,Kabul,x,Kabul,34,30,69,10,,,"4, 6b, 10b, 11, 13b—14b, 20, 22, 27b, 29b, 45b, 123, 124b—128, description 12 8b-144b, 145, 146b, 147, 154, 155, 159, 160, 165, 167, 167b, 168b, 169b, 170, 171b, 172b, 177, 178, 183b, 187b, 188, 192, 193, 197-204, 207b, 212b-213b, 214b, 215, 215b, 218b, 220, 220b, 222, 224b, 225, 225b, 227, 229b, 231b, 233, 233b, 235-36, 237b, 239b, 240, 241b, 242, 243b—246, 248, 251b, 258, 261, 263, 269-270b, 272, 272b, 279, 280, 286b, 294, 295, 295b, 298, 300b, 305, 307, 307b, 311, 311b, 325, 327, 330, 339, 345b, 346, 348b, 350, 351, 352b, 356b, 357b, 358b-360, 361b, 364, 364b, 375, 380b, 381",,34.5,69.1666666667
323,Kachakot,,Kachakot,,,,,,? confluence of the Harru and Indus?,"159b, 222b, 238, 254",,,
324,Kadwāha,x,Kachwaha,24,58,77,57,,eq Kadwaha,"332b, 333","Kachwaha, Kadwaha",24.9666666667,77.95
325,Kafiristan,,Kafiristan,,,,,region,,"26, 131b, 133-135b, 218b, 270b",,,
326,Kahdistan,,Kahdistan,,,,,,ca. 10 km e of Herat,"191, 206b",,,
327,Kahlur,x,Kahlur,31,19,76,50,,,261,,31.3166666667,76.8333333333
328,Kahmard,x,Kahmard,35,19,67,38,region,,"27b, 120b, 121, 122, 124b, 126, 126b, 152b, 159, 183b, 184b, 242, 352b",,35.3166666667,67.6333333333
329,Kahraj Valley,,Kahraj Valley,,,,,,? Bajaur-Swat,219—220b,,,
330,Kaja,x,Kaja,34,15,70,10,,,135b,,34.25,70.1666666667
331,Kakora,?,Kakora,26,32,79,33,,,361b,,26.5333333333,79.55
332,Kalanaur,x,Kalanaur,32,1,75,13,,,"254, 258",,32.0166666667,75.2166666667
333,Kalat,,Kalat,,,,,,Khurasan,"167, 206b",,,
334,Kallar Kahār,x,Kalda Kahar,32,58,72,49,,,"224, 229b, 231",,32.9666666667,72.8166666667
335,Kālpi,x,Kalpi,26,6,79,55,,,"274b, 292b, 294, 307b, 332, 332b, 336, 361b, 365b, 379, 380",,26.1,79.9166666667
336,Khāşah Kāmah,x,Kama,34,25,70,38,,,"134, 134b",,34.4166666667,70.6333333333
337,Kamari,,Kamari,,,,,,near Butkhak,153b,,,
338,Kambay,,Kambay,,,,,,Samarkand,"30b, 38b, 69",,,
339,Kan-i-Gil Meadow,,Kan-i-Gil Meadow,,,,,,Samarkand,"46, 47b, 48",,,
340,Kanar Ford,,Kanar Ford,,,,,,? near Kalpi,"331b, 332, 336",,,
341,Kandagar,,Kandagar,,,,,,? Mandrawar,250b,,,
342,Kandahār,x,Kandahar,31,37,65,47,,,"10b, 42b, 57b, 129, 131, 137b, 139b, 144, 156, 157, 167b, 172b, 193, 204b, 207, 208, 208b, 210b-213b, 214b, 215, 148b, 270, 270b, 291b, 347",,31.6166666667,65.7833333333
343,Kandar,,Kandar,,,,,,fort at Ranthambhor,"298-99, 304",,,
344,Kandhla,,Kandhla,,,,,,?,"293, 377",,,
345,Konibodom,x,Kanibadam,40,17,70,25,,,"4, 4b, 10, 25, 56, 71b, 111",,40.2833333333,70.4166666667
346,Kannauj,x,Kannauj,27,2,79,53,,,"167b, 292b, 294, 298b, 299, 315, 328b, 329, 332, 334, 336",,27.0333333333,79.8833333333
347,Kanwahin,,Kanwahin,,,,,,on the Beas,258,,,
348,Kara Robat,,Kara Robat,,,,,,? between Herat and the Murghab,"173, 205b",,,
349,Kara,x,Kara,25,42,81,22,,,"274b, 293, 307b, 362, 362b, 363",,25.7,81.3666666667
350,Qarah Bāgh,x,Karabagh,34,51,69,9,region,between Ghazni and Kandahar,"125b, 126, 153, 212b",,34.85,69.15
351,Qorako'l,x,Karakul,39,30,63,52,,,"23, 45, 49b, 86, 87b",,39.5,63.8666666667
352,Karal,,Karal,,,,,,? near Sirhind,261b,,,
353,Karamnasa,,Karamnasa,,,,,water,,"365b, 366",,,
354,Karategin Mts.,,Karategin Mts.,,,,,mountain,,"33b, 63b, 69b, 81",,,
355,Karmas Mt.,,Karmas Mt.,,,,,mountain,? se of Gardez,238b-239b,,,
356,Karmana Shahri,x,Karminiyya,40,5,65,24,,,49b,,40.0833333333,65.4
357,Qarnon,x,Karnon,41,2,71,12,,,"103b, 104, 116b—118, 119, 119b",,41.0333333333,71.2
358,Karnu,,Karnu,,,,,,e of Kabul,"128, 141",,,
359,Karshi,x,Karshi,38,53,65,45,,,"36, 49b, 86, 120b",,38.8833333333,65.75
360,Kashghar,,Kashghar,,,,,,eastern Turkistan,"1b, 11, 12, 12b, 17b, 20b, 32, 45, 131b, 200b, 236, 242, 246, 246b, 294, 332b",,,
361,State of Jammu and Kashmīr,x,Kashmir,,,,,region,,"223, 228, 270b, 272b, 278",,,
362,Kosonsoy,x,Kassan,41,15,71,31,,,"5, 14, 15, 17, 17b, 63b, 72, 72b, 109, 109b",,41.25,71.5166666667
363,Zarghūn Shahr,x,Katawaz,32,51,68,27,region,,"153, 153b, 203, 204",,32.85,68.45
364,Kātlang,x,Katlang,34,22,72,5,,,221b,,34.3666666667,72.0833333333
365,Kator,,Kator,,,,,,? Kafiristan,131b,,,
366,Kawar,,Kawar,,,,,,? Kafiristan,133,,,
367,Kelif,x,Kelif,37,21,66,18,,,"33, 122",,37.35,66.3
368,Atamyrat,x,Kerki,37,50,65,12,,,122,,37.8333333333,65.2
369,Kerman,,Kerman,,,,,,Iran,"29b, 165",,,
370,Khakan,,Khakan,,,,,,? canal s of Andizhan,"53b, 105b, 106, 106b, 107b",,,
371,Khairābād,x,Khairabad,27,32,80,45,,,"292b, 329",,27.5333333333,80.75
372,Khaliliyya,,Khaliliyya,,,,,,?,95b,,,
373,Khalishak,?,Khalishak,31,0,65,0,,,"208b, 209",,31,65
374,Khamchan,x,Khamchan,37,7,70,31.5,region,202b,,,37.1166666667,70.525
375,Khamalang,,Khamalang,,,,,,? Badakhashan,154b,,,
376,Khan Yurtï Meadow,,Khan Yurtï Meadow,,,,,,Samarkand,"40, 40b, 48, 48b, 78b, 83",,,
377,Khanuan,x,Khanua,27,45,77,26,,,"310, 318b",,27.75,77.4333333333
378,Guliston,x,Kharabek,40,46,72,28,,,"105, 107b",,40.7666666667,72.4666666667
379,Kharid,,Kharid,,,,,region,,"354b, 368b, 369, 374b, 376b",,,
380,Kharjerd,,Kharjerd,,,,,,Khurasan,"347b, 354",,,
381,Khasslar,,Khasslar,,,,,,?,98,,,
382,Xovos,x,Khavast,40,10,68,49,,,"8, 19",,40.1666666667,68.8166666667
383,Kōtal-e Khāwāk,x,Khawak Pass,35,40,69,47,,,130,,35.6666666667,69.7833333333
384,Khimar,,Khimar,,,,,,,165,,,
385,Khinjān,x,Khinjan,35,35,68,54,,,130b,,35.5833333333,68.9
386,Khŭjand,x,Khodzhent,40,17,69,37,,,"lb, 2, 4, 4b, 6, 8, 16b, 17, 19b, 20, 31b, 32b, 53b, 54b, 55b, 56, 58b, 59, 60, 60b, 61b, 71b, 72, 74, 75, 78, 98, 101, 103b, 104, 108, 109, 111, 116b",,40.2833333333,69.6166666667
387,Khotan,,Khotan,,,,,,,17b,,,
388,Khunan,,Khunan,,,,,,? near Osh,69b~70b,,,
389,Kulōrō Dahşīl,x,Khuram,35,55,68,0,,,308b,,35.9166666667,68
390,Khurasan,,Khurasan,,,,,region,,"7b, 10b, 15, 15b, 20, 26b, 29, 32b, 35b, 42, 46, 57b, 58, 59b, 80b, 120, 120b, 121b, 124b, 126, 126b, 129, 129b, 131, 136b, 138b, 140, 142b, 155, 156b, 157, 161b, 162b, 164b, 165, 165b, 169, 170, 175b, 176, 177, 177b, 178b, 179b, 182, 183b, 184b, 185, 187b, 188, 190, 191b, 201b, 202, 204, 206, 207-208, 212b, 269b, 286, 294, 345",,,
391,Khur Kābul,x,Khurd Kabul,34,23,69,23,,,"142, 213b, 360",,34.3833333333,69.3833333333
392,Khūsh Gunbad,x,Khush Gumbaz,34,25,70,31,,,"145b, 154, 252",,34.4166666667,70.5166666667
393,Khush Valley,,Khush Valley,,,,,,? Jangalak,"14, 160, 161b",,,
394,Khushāb,x,Khushab,32,18,72,21,,,"165, 223b, 224b-226, 229, 229b, 235b",,32.3,72.35
395,Khuspan,,Khuspan,,,,,,?,78,,,
396,Khuttalan,,Khuttalan,,,,,region,,"9, 26b, 33b, 35, 56b, 57, 122, 125b, 134, 140b",,,
397,Khuzar,,Khuzar,,,,,,,"49b, 86",,,
398,Rabat-i-Khwaja,,"Khwaja, Rabat-i",,,,,,"Shavdar, Samarkand","44, 59, 80, 82b, 83",,,
399,Khwaja Abdul-Samad,,Khwaja Abdul-Samad,,,,,,Kabul,128b,,,
400,Khwaja Basta,,Khwaja Basta,,,,,,Kabul,360,,,
401,Khwaja Changal,,Khwaja Changal,,,,,,Konduz,35b,,,
402,Khwaja Chartaq,,Khwaja Chartaq,,,,,,Konduz,156,,,
403,Khwaja Didar Fort,,Khwaja Didar,,,,,,Samarkand,"43b, 44b, 81b, 82b, 86, 95",,,
404,Khwaja Hasan,,Khwaja Hasan,,,,,,Kabul,"235b, 247b, 248",,,
405,Khwaja Imad,,Khwaja Imad,,,,,,Hissar,120b,,,
406,Khwaja Isma‘il,,Khwaja Isma‘il,,,,,,Ghazni,"141, 203, 203b",,,
407,Khwaja Kafshir,,Khwaja Kafshir,,,,,,Samarkand,"36b, 93b",,,
408,Khwaja Kardzan,,Khwaja Kardzan,,,,,,Samarkand,"38b, 80b, 88b",,,
409,Khwaja Kata,,Khwaja Kata,,,,,,Andizhan,106,,,
410,Khwaja Khawand Sa‘id,,Khwaja Khawand Sa‘id,,,,,,Kabul,"129b, 241a",,,
411,Khwaja Khizr,,Khwaja Khizr,,,,,,Bajaur,"219, 221",,,
412,Khwaja Khizr’s Footprint,,Khwaja Khizr’s Footprint,,,,,,Kabul,"128b, 241b",,,
413,Qaryah-ye Khwājah Rowāsh,x,Khwaja Rawash,34,33,69,13,,,"156b, 216",,34.55,69.2166666667
414,Khwaja Rawshanai,,Khwaja Rawshanai,,,,,,Kabul,128b,,,
415,Khwaja Reg-i-Rawan,,Khwaja Reg-i-Rawan,,,,,,Ghorband,"136, 248b",,,
416,Khwaja Rustam,,Khwaja Rustam,,,,,,on the Kabul,252,,,
417,Khwaja Seyaran,,Khwaja Seyaran,,,,,,,"136b, 235, 240, 240b, 248b",,,
418,Khwaja Shihab,,Khwaja Shihab,,,,,,,248,,,
419,Khwaja Zaid,?,Khwaja Zaid,35,32,68,42,,,"124b, 125",,35.5333333333,68.7
420,Khwarazm,,Khwarazm,,,,,region,,"45, 139, 154b, 156b, 163, 163b, 166, 172, 234b, 269b",,,
421,Khwast,?,Khwast,36,1,69,33,,,"140b, 236, 238, 242, 244",,36.0166666667,69.55
422,Khyber Pass,x,Khyber Pass,34,6,71,5,,,"131, 145b, 159b, 165, 225, 243, 243b, 244b, 277",,34.1,71.0833333333
423,Kilagai,,Kilagai,,,,,,mod near Dowshi,29b,,,
424,Kindirlig Pass,,Kindirlig Pass,,,,,,between Ahangaran and Kassan,"32, 54b, 103b",,,
425,Kira Su,,Kira Su,,,,,water,? Afghanistan,244b,,,
427,Kishm,,Kishm,,,,,water,,"184, 347",,,
428,Kishtudak,x,Kishtud,39,28,68,8,,,"81b, 82",,39.4666666667,68.1333333333
429,Kitib,,Kitib,,,,,region,? between Bhera and the Indus,232,,,
430,Zeravshan River Basin,x,Kohak,,,,,water,eq Zeravshan,"38, 43, 45, 46-47, 48b, 50, 82b, 83, 90, 90b","Kohak River, Kohak",,
431,Kohāt,x,Kohat,33,35,71,26,,,"138, 146-47, 148, 159b, 225, 233",,33.5833333333,71.4333333333
432,Koh Daman,,Koh Daman,,,,,region,n of Kabul,135b,,,
433,Koh-i Bachcha,,Koh-i Bachcha,,,,,mountain,Kabul,241,,,
434,Koh-i Saf,,Koh-i Saf,,,,,mountain,Balkh,184b,,,
435,Kohri,,Kohri,,,,,,Alwar,327b,,,
436,Kohtan Mountains,,Kohtan,,,,,mountain,"eq Termez, Chaghanian, Hissar, Khuttalan, Konduz and Badakhshan",26b,,,
437,Alīgarh,x,Koil,27,54,78,6,,mod Aligarh,"113b, 291b, 296, 315, 325b, 330b",,27.9,78.1
438,Qo‘qon,x,Kokand,40,30,70,57,,,"25, 103b",,40.5,70.95
439,Kokcha,,Kokcha,,,,,water,,202b,,,
440,Köl-i-Malik,,Köl-i Malik,,,,,,Bukhara,22b,,,
441,Kunduz,x,Konduz,36,47,68,51,,,"9, 26b, 27b, 29, 29b, 33, 34b-35b, 37b, 42, 44, 57b, 68, 90b, 122-23, 125b, 128, 130, 136, 144b, 154b, 156, 156b, 165b, 170, 173, 200b, 218b, 237b, 242b, 270, 308b",Konduz,36.7833333333,68.85
442,Kasba Kora,x,Kora,26,7,80,22,,,"362, 379",,26.1166666667,80.3666666667
443,Kotla,x,Kotla,32,15,76,2,,,260b,,32.25,76.0333333333
444,Kotlah Tank,,Kotlah Tank,,,,,,s of Alwar,"327, 327b",,,
445,Kufin,,Kufin,,,,,,Bukhara,38b,,,
446,Kulahgram,,Kulahgram,,,,,,? Kunar,250,,,
447,Kumrud,,Kumrud,,,,,water,,"33b, 81, 81b",,,
448,Kunar,,Kunar,,,,,region,,"133b, 134, 144, 214b, 215, 221, 250, 277b",,,
449,Kunar River,x,Kunar,,,,,water,,250b,Kunar,,
450,Kunwari,,Kunwari,,,,,water,,"340, 344",,,
451,Kura Pass,,Kura Pass,,,,,,? e of Nijrao,"139b, 249",,,
452,Kura-i-Tazian,,Kura-i-Tazian,,,,,,? Ghorband,135b,,,
453,Kurriah,,Kurriah,,,,,,,362,,,
454,Kusar,,Kusar,,,,,,? Doab,362b,,,
455,Kushkak,,Kushkak,,,,,,? perhaps Khushkak nw of Kabul,159b,,,
456,Quva,x,Kuva,40,32,72,3,,,"16b, 77b, 104",,40.5333333333,72.05
457,Laghman,,Laghman,,,,,region,,"10b, 125, 126, 128, 129b, 131-3 3b, 140b, 143, 145b, 154b, 200b, 213b, 221, 222, 241b, 245b, 248b, 249, 250b, 277b, 278b, 281, 284b, 286, 286b",,,
458,Lahore,x,Lahore,31,34,74,22,,,"132, 225, 225b, 227, 254, 255-56, 257b, 272b, 273b, 292, 300b, 326, 361b, 365b, 371b, 381",,31.5666666667,74.3666666667
459,Lakhnor,?,Lakhnor,28,34,79,2,,,329,,28.5666666667,79.0333333333
460,Laknaur,,Laknaur,,,,,,?,292b,,,
461,Lamata Kandi,,Lamata Kandi,,,,,,,134,,,
462,Lamghani,,Lamghani,,,,,,Kabul,241b,,,
463,Latkand,,Latkand,,,,,,? Rabat-i-Sarhang,66b,,,
464,Wilāyat-e Lōgar,x,Logar,34,6,69,3,region,,"137, 178",,34.1,69.05
465,Lucknow,x,Lucknow,26,50,80,58,,,"278b, 334, 338, 376, 376b, 377b",,26.8333333333,80.9666666667
466,Madhākur,x,Madhakur,27,9,77,52,,,"309b, 344b",,27.15,77.8666666667
467,Mady,x,Mady,40,32,72,56,,,"66b, 67",,40.5333333333,72.9333333333
468,Mahāban,x,Mahaban,27,27,77,46,,,294b,,27.45,77.7666666667
469,Mahobā,x,Mahoba,25,17,79,52,,,"379b, 228, 293",Kalinjar Fort,25.2833333333,79.8666666667
470,Mayang,x,Maing,26,25,82,3,,,378b,,26.4166666667,82.05
471,Malana,,Malana,,,,,,?,293,,,
472,Malgar,,Malgar,,,,,,? ne of Kabul,248b,,,
473,"Malot Fort, Hoshiarpur",x,Malot,31,50,76,0,,"Hoshiarpur, Punjab","257, 258, 259, 259b, 260, 261",,31.8333333333,76
474,"Malot Fort, Jhelum",x,Malot,32,42,72,50,,Jhelum,259b,Malot,32.7,72.8333333333
475,Malwa,,Malwa,,,,,region,,"46b, 271, 272, 273b, 333b",,,
476,Mama Khatun,?,Mama Khatun,34,49,69,6,,,240,,34.8166666667,69.1
477,Manar,,Manar,,,,,mountain,Kabul,"197, 197b",,,
478,Manasni,,Manasni,,,,,water,,"326, 327, 327b",,,
479,Mandesh,,Mandesh,,,,,,? n of Bajaur,220,,,
480,Mindrawuṟ,x,Mandrawar,34,33,70,13,,,"133, 144, 200b, 214b, 215, 249, 250b ",,34.55,70.2166666667
481,Māndu,x,Mandu,22,22,75,23,,See also Malwa,"271, 272",,22.3666666667,75.3833333333
482,Maner,x,Maner,25,38,84,52,,,"369b, 370, 372",,25.6333333333,84.8666666667
483,Mānikpur,x,Manikpur,25,41,81,6,,,"274b, 293",,25.6833333333,81.1
484,Manoghal,,Manoghal,,,,,mountain,? Khodzhent,4,,,
485,Maqām,x,Maqam,33,39,72,33,,,"221b, 222",,33.65,72.55
486,Maragha,,Maragha,,,,,,Azerbaijan,46b,,,
487,Marg‘ilon,x,Margilan,40,30,71,45,,,"3, 3b, 4, 4b, 16, 16b, 45, 60b-61b, 63, 78, 104, 108b, 110b, 111",,40.5,71.75
488,Mūrichāq,x,Maruchak,35,49,63,9,,,185,,35.8166666667,63.15
489,Mashhad,,Mashhad,,,,,,Khurasan,"167, 185, 206b, 301b, 347b",,,
490,Mastung,x,Mastung,29,48,66,51,,,211b,,29.8,66.85
491,Mata,x,Mata,35,25,69,45,,,135b,,35.4166666667,69.75
492,Matcha,,Matcha,,,,,water,,"14, 32b, 39b, 97, 99, 99b",,,
493,Mecca,x,Mecca,,,,,,,"13b, 168b, 294",,,
494,Medina,x,Medina,,,,,,,294,,,
495,Mehter Sulaiman,,Mehter Sulaiman,,,,,mountain,,"150, 150b, 152",,,
496,Merv,x,Merv,37,36,61,50,,,"9, 86, 87b, 179b, 185, 188, 200b, 301b, 345, 347, 347b",,37.6,61.8333333333
497,Mist,x,Mest,32,58,68,33,,,203,,32.9666666667,68.55
498,Mewat,,Mewat,,,,,region,"s of Delhi, see also Mandu","273, 292, 294, 296b, 311b, 325b, 326, 326b",,,
499,Mian Kal,,Mian Kal,,,,,region,between Bukhara and Samarkand,"86, 347",,,
500,Mihan,,Mihan,,,,,,?  Isfara,78,,,
501,Mil,,Mil,,,,,,? Kafiristan,133,,,
502,Langar-i-Mir Ghiyas,,Mir Ghiyas Langar,,,,,,,192-93,,,
503,Monghyr,x,Monghyr,25,24,86,29,,,375b,,25.4,86.4833333333
504,Mughulistan,,Mughulistan,,,,,region,,"6, 10, 10b, 72, 102, 140b, 204",,,
505,Muḩammad Āghā,x,Muhammad Agha,34,13,69,0,,,240,,34.2166666667,69
506,Muhammad Pikh Pass,,Muhammad Pikh Pass,,,,,,? n of Kohat,"146, 146b",,,
507,Muhuri,,Muhuri,,,,,,? Etawa,358b,,,
508,Muqur,x,Mukur,32,50,67,46,,,215b,,32.8333333333,67.7666666667
509,Multān,x,Multan,30,11,71,29,,,"139b, 142b, 150b, 165, 273, 339, 359",,30.1833333333,71.4833333333
510,Mundagan,,Mundagan,,,,,,near the Balkh,184b,,,
511,Murghab,,Murghab,,,,,water,,"122, 165, 179, 185b, 187, 187b, 205",,,
512,Murghān Kēchah,x,Murghan,31,32,65,58,mountain,,211,,31.5333333333,65.9666666667
513,Nāgaur,x,Nagaur,27,12,73,44,,,293,,27.2,73.7333333333
514,Naghar,,Naghar,,,,,region,? on the Kurram,"128, 131, 146b, 148",,,
515,Nangarhar,,Nangarhar,,,,,region,,"131b, 132, 132b, 134b, 144, 145, 154b, 199b, 214, 215, 216, 249, 277b",,,
516,Nani Fort,,Nani Fort,,,,,,? Afghanistan,162,,,
517,Old Nani,,"Nani, Old",,,,,,,153b,,,
518,Narhan,x,Narhan,25,58,84,15,,,374b,,25.9666666667,84.25
519,Nārnaul,x,Narnaul,28,3,76,10,,,376,,28.05,76.1666666667
520,Nasukh Fort,,Nasukh Fort,,,,,,? Kanibadam,56,,,
521,Komintern,x,Naukent,41,13,71,40,,,"72b, 109, 109b",,41.2166666667,71.6666666667
522,Nawandak,,Nawandak,,,,,,between Chaghanian and Hissar,"29b, 81, 265",,,
523,Nijrāb,x,Nijrao,34,58,69,34,region,,"129b, 133, 135, 135b, 139b, 140, 140b, 161b, 162, 248b, 249, 279",,34.9666666667,69.5666666667
524,Nilab,,Nilab,,,,,,,"131, 159b, 168, 222b, 223, 228, 231, 132b, 232, 235b, 243b, 248b, 249b, 254, 360b, 365b",,,
525,Niratu Fort,,Niratu Fort,,,,,,Herat,215,,,
526,Nirkh,x,Nirkh,34,22,68,48,,,145,,34.3666666667,68.8
527,Nishin Meadow,,Nishin Meadow,,,,,,ca. 17 km se of Herat,"57b, 165b",,,
528,Moshab,,Moshab,,,,,,? Fergana,70b,,,
529,Nūrgal,x,Nur Gul,34,36,70,45,region,,"133b, 134, 144, 214b, 215, 250b",,34.6,70.75
530,Darah-ye Nūr,x,"Nur, Dara-i",34,41,70,35,,,"133b—134b, 144, 154, 215, 243, 249b, 277",,34.6833333333,70.5833333333
531,Ōbêh,x,Obeh,34,22,63,10,,,172b,,34.3666666667,63.1666666667
532,Dashti Obburdon,x,Oburdan,39,24,69,5,,,"99, 99b",,39.4,69.0833333333
533,Osh,x,Osh,40,37,72,49,,,"2b, 3, 5, 13, 18, 63, 63b, 66, 66b, 67b, 69b, 71, 77b, 103b—105b, 107b—108b, 110b, 111, 113b",,40.6166666667,72.8166666667
534,Otrar,x,Otrar,42,54,68,22,,eq Yangï qv,"1b, 10",Yangï,42.9,68.3666666667
535,Ayodhya,x,Oudh,26,47,82,12,,,"278b, 292b, 296b, 307b, 338, 338b, 370b, 377",,26.7833333333,82.2
536,Amu Darya,x,Oxus,,,,,water,,"27b, 28b, 33, 44, 120b, 124, 156b, 159",,,
537,Pachaghan,,Pachaghan,,,,,,Laghman,"139b, 162",,,
538,Pād Khwāb-e Shānah,x,Padkhwab-i-Shahana,33,57,69,4,,,238,,33.95,69.0666666667
539,Paghmān,x,Paghman,34,35,68,57,,,"136b, 200b",,34.5833333333,68.95
540,Pakhli,,Pakhli,,,,,region,nw frontier,272b ,,,
541,Palghar,,Palghar,,,,,region,Fan-Matcha,32b,,,
542,Pand Deh,,Pand Deh,,,,,,near Maruchak,185,,,
543,Pānīpat,x,Panipat,29,24,77,0,,,"257, 264, 265, 301b",,29.4,77
544,Paniyali,,Paniyali,,,,,,? Swat,221,,,
545,Panjkora,,Panjkora,,,,,water,,219b-220b,,,
546,Panjshir,,Panjshir,,,,,water,,"125, 125b, 130, 135b, 159b, 241",,,
547,Pop,x,Pap,40,53,71,5,,,"54b, 62, 109b, 110, 112b",,40.8833333333,71.0833333333
548,Kōtal-e Pārandih,x,Parandev,35,25,69,24,,,"130, 130b",Bazarak,35.4166666667,69.4
549,Parayin Valley,,Parayin Valley,,,,,,?,"214, 214b",,,
550,Parsaru,,Parsaru,,,,,water,,378,,,
551,Charikar,x,Parwan,35,15,69,30,,eq Charikar,"130b, 135b, 136, 143, 240b",Parwan,35.25,69.5
552,Pasrūr,x,Pasrur,32,16,74,40,,,"255, 257b",,32.2666666667,74.6666666667
553,Allahābād,x,Payag,25,27,81,51,,eq mod Allahabad,"363b, 364",Payag,25.45,81.85
554,Pech Dara,,Pech Dara,,,,,water,n and w of Chigha Sarai,134,,,
555,Peshawar,x,Peshawar,34,1,71,33,,,"128, 131b, 146, 224b, 232b, 242b, 244, 275b, 276, 279b",Purshavur,34.0166666667,71.55
556,Peshgram,,Peshgram,,,,,,,219b,,,
557,Paharhāli,x,Pharhali,33,23,73,29,,,"228, 229b, 230, 234b",,33.3833333333,73.4833333333
558,Phillaur,x,Phillaur,31,1,75,47,,,257b,,31.0166666667,75.7833333333
559,Pir Kanu,,Pir Kanu,,,,,,Sakhi Sarwar,"151b, 152",,,
560,Pishag‘ar,x,Pishagar,39,58,68,7,,,"59, 59b, 61, 96",,39.9666666667,68.1166666667
561,Pishamun,,Pishamun,,,,,,? near Andizhan,105,,,
562,Peshqo‘rg‘on,x,Pishkaran,41,17,71,50,,,"73b, 74, 109b",,41.2833333333,71.8333333333
563,Piskent,x,Pskent,40,52,69,20,,,"98, 100, 165b, 347",Biskent,40.8666666667,69.3333333333
564,Pul-i Salar,,Pul-i Salar,,,,,,,"206b, 207",,,
565,Purab,,Purab,,,,,region,e of the Ganges,"270, 296b, 298b, 299b, 303, 350, 356b",,,
566,"Qaisar, Faryab",x,Qaisar,35,41,64,17,,,184b,,35.6833333333,64.2833333333
567,Qalāt,x,Qalat,32,6,66,54,,,"158, 158b, 207b, 208, 209, 212b, 213b",,32.1,66.9
568,Qara Bulaq,,Qara Bulaq,,,,,,? Samarkand,"39b, 99b",,,
569,Qara Köbä Pass,,Qara Köbä Pass,,,,,,? near Peshawar,221,,,
570,"Qara Su Stream, Samarkand",,Qara Su,,,,,water,eq Ab-i-Rahmat qv Samarkand,"46, 47b, 48","Ab-i-Rahmat,Siah Ab",,
571,Qaraghina,,Qaraghina,,,,,,? near Kharabek,107b,,,
572,Qarangriq,,Qarangriq,,,,,,? Bajaur,133,,,
573,Qarbugh Hill,,Qarbugh Hill,,,,,,Samarkand,95b,,,
574,Qargha Yaylagh,x,Qargha Yaylagh,34,33,69,3,,,201b,,34.55,69.05
575,Qayaqtu,,Qayaqtu,,,,,water,? Katawaz,203,,,
576,Qayin,,Qayin,,,,,,"Khurasan, Iran","185, 188",,,
577,Qelaghu,,Qelaghu,,,,,,? Afghanistan,244b,,,
578,Qipchaq Pass,,Qipchaq Pass,,,,,,Hindu Kush,"126b, 130b",,,
579,Qirq Ariq,,Qirq Ariq,,,,,,? on the Kabul,"242b, 252, 252b",,,
580,Qolba Meadow,,Qolba Meadow,,,,,,Samarkand,"42b, 43, 47b, 48b, 80b, 90b",,,
581,Quratu,,Quratu,,,,,,? near Jagdalak,"133, 233b, 242b, 251b",,,
582,Qurug Say,,Qurug Say,,,,,,? between Khurd Kabul and Jagdalak,"132, 133, 213b, 233, 245b",,,
583,Qush Gumbaz,,Qush Gumbaz,,,,,,see Khush Gumbaz,,,,
584,Qushkana,,Qushkana,,,,,,? n of Hissar,42b,,,
585,Qushkhana Meadow,,Qushkhana Meadow,,,,,,Kandahar,212,,,
586,Qush Nawar Meadow,,Qush Nawar Meadow,,,,,,Kabul,"157, 247",,,
587,Radkan,,Radkan,,,,,,Khurasan,347b,,,
588,Rāgh,x,Ragh,37,34.5,70,28.5,region,"37'30-39, 70'22-35","154b, 155, 202b",,37.575,70.475
589,Raisen,x,Raisen,23,21,77,49,,,335b,,23.35,77.8166666667
590,Ranthambhore Fort,x,Ranthambhor,26,42,76,32,,,"272, 273b, 293, 342b, 343, 345",,26.7,76.5333333333
591,Rāpri,x,Rapri,26,58,78,36,,,"294, 298b, 315, 328b, 336, 358, 380b",Raberi,26.9666666667,78.6
592,Rapti,,Rapti,,,,,water,,273,,,
593,Rāvi River,x,Ravi,,,,,water,,"257b, 273",,,
594,Rind,,Rind,,,,,water,Etawah-Kanpur,379,,,
595,Rishton,x,Rishtan,40,20,71,15,,,3b,,40.3333333333,71.25
596,Ropar,x,Rupar,30,59,76,36,,,261b,"Rubat, Rupar, Ropar",30.9833333333,76.6
597,Rustāq,x,Rustak,37,7,69,49,,,154b,,37.1166666667,69.8166666667
598,Rustam Plain,,Rustam Plain,,,,,,? sw of Gardez,239b,,,
599,Sabzawar,,Sabzawar,,,,,,Iran,165b,,,
601,Safed Koh,,Safed Koh,,,,,mountain,Spin Ghar,"132b, 277",,,
602,Sayghān,x,Saighan,35,11,67,39,,,"130b, 183b",,35.1833333333,67.65
603,"Sajawand, Afghanistan",x,Sajawan,33,54,68,45,,,"137b, 153b",,33.9,68.75
604,Sakan,,Sakan,,,,,,? on the Jaxartes,103b,,,
605,Sakhan dam,,Sakhan dam,,,,,,? Ghazni,139,,,
606,Samāna,x,Samana,30,9,76,15,,,"262, 297, 355b",,30.15,76.25
607,Samarkand,x,Samarkand,39,40,66,55,,,"lb, 2, 3b, 4, 5-6b, 7b-8b, 10b—11b, 12b—13b, 14b—15b, 19b—21, 22b—25, 26b, 28, 29b-30b, 33b, 36, 37-41, 42b-44b; description 44b-50b, 51-54, 55b, 56b, 58b—59b, 68b, 69, 74, 76b-78b, 79b, 80, 81-84, 85-87b, 89, 90b-91b, 94b, 96, 96b, 97b-98b, 108, 125b, 129, 129b, 131b, 136b, 140, 140b, 144b, 156, 163b, 168, 170b, 174b, 175b, 178, 180, 181, 187, 187b, 190, 204, 237b, 238, 265, 269b, 286, 294, 345b, 347, 348b, 351b, 356b, 357b",,39.6666666667,66.9166666667
608,Sambhal,x,Sambhal,28,35,78,34,,,"272b, 292b, 294, 297, 297b, 309b, 315, 331, 375, 381",,28.5833333333,78.5666666667
609,Samsarek,x,Samsarek,41,14,69,39,,,"98b, 100, 100b",,41.2333333333,69.65
610,Sang Burida,,Sang Burida,,,,,,?,241,,,
611,Sang,,Sang,,,,,,?,114,,,
612,Ks̲h̲êtah Lakhchak,x,Sang-i-Lakhshak,,,,,,eq? mod Lakhchak near Kandahar,208b,,,
613,Sang-i-Surakh road,,Sang-i-Surakh road,,,,,,? Ghazni-Dasht,"145, 149b",,,
614,Sangdaki,,Sangdaki,,,,,,?,"222b, 223, 231b",,,
615,Sangchārak,x,San-u-Charyak,35,55,66,27,,mod. Sangcharak,"57, 184b",Charyak,35.9166666667,66.45
616,Sanaur,x,Sanur,30,16,76,29,,,261b,,30.2666666667,76.4833333333
617,Sanzar,,Sanzar,,,,,water,,"55b, 78b, 82b",,,
618,Saq Salman,,Saq Salman,,,,,,10 km nw of Herat,191,,,
619,Saqa,,Saqa,,,,,,? near Osh,70,,,
620,Sar-i-Pul,,Sar-i-Pul,,,,,,Samarkand,"8b, 38b, 88, 120b",,,
621,Sarab,,Sarab,,,,,water,Andarab,"29b, 125b, 130b",,,
622,Sarai,,Sarai,,,,,,?,156b,,,
623,Sarakhs,x,Sarakhs,36,32,61,10,,,301b,,36.5333333333,61.1666666667
624,Sāran District,x,Saran,24,29,86,19,region,,"293, 374b, 377",,24.4833333333,86.3166666667
625,Sārangpur,x,Sarangpur,23,35,76,32,,,"272, 335b",,23.5833333333,76.5333333333
626,Khuram wa Sār Bāgh,x,Sarbagh,36,3,68,4,,,308b,,36.05,68.0666666667
627,Sardeh Dam,,Sardeh Dam,,,,,,Ghazni,"139, 153b",,,
628,Rabat-i-Sarhang,,"Sarhang, Rabat-i",,,,,region,N of Osh,"66b, 67b",,,
629,Sarju,,Sarju,,,,,water,,"273, 275b, 282, 307b, 338b, 368b, 370, 370b, 372b, 374-75, 377, 378, 380",,,
630,Sarsāwa,x,Sarsawa,30,1,77,25,,,"263, 263b",,30.0166666667,77.4166666667
631,Sarwar,,Sarwar,,,,,region,vicinity of Gorakhpur,"293, 362b, 377, 379",,,
632,Saritag,x,Sary-Tag,39,3,68,19,,,"33b, 81",,39.05,68.3166666667
633,Saugandpur,,Saugandpur,,,,,,? Kalpi,380,,,
634,Sawa Sang,,Sawa Sang,,,,,,? s of Qalat,158b,,,
635,Saygal,,Saygal,,,,,,? Nangarhar,214,,,
636,Sayram,x,Sayram,42,18,69,45,,,"8, 19b, 102, 105b",,42.3,69.75
637,Sih Gānah,x,Sehgana,32,55,68,31,,,203,,32.9166666667,68.5166666667
638,Seistan,,Seistan,,,,,region,,"166, 204b",,,
639,Sengar,,Sengar,,,,,water,Etawah,361b,,,
640,Seondha,,Seondha,,,,,,,292b,,,
641,Serai-Munda,,Serai-Munda,,,,,,,363a,,,
642,Serauli,,Serauli,,,,,,? Allahabad,363b,,,
643,Shāhābād Mārkanda,x,Shahabad,30,10,76,52,,,263,,30.1666666667,76.8666666667
644,Shah-i Zinda Shrine,,Shah-i Zinda Shrine,,,,,shrine,Samarkand,44b,Shah Shrine,,
645,Shah Kabul,,Shah Kabul,,,,,mountain,,"128, 128b",,,
646,Shahmang,,Shahmang,,,,,,? Kashmir,272b,,,
647,Shahrisabz,x,Shahrisabz,39,3,66,50,,See also Kish,"2, 49, 38, 49, 49b",Kish,39.05,66.8333333333
648,Shahrisafa,,Shahrisafa,,,,,,near Changhanian and Termez,120b,,,
649,Shahr-e Şafā,x,Shahr-i-Safa,31,48,66,19,,,"208, 208b",,31.8,66.3166666667
650,Shahrukhiyya,,Shahrukhiyya,,,,,region,,"2, 3b, 6, 7b, 8, 12, 12b, 19b, 31, 31b, 45, 98, 99b",Fanakat,,
651,Shakhdan,,Shakhdan,,,,,,? Badakhashan,184,,,
652,Shal,x,Shal,30,15,67,5,,,211b,,30.25,67.0833333333
653,Shamshabad,x,Shamsabad,27,27,79,16,,Farrukhabad dist?,"268b, 333b, 336, 343, 376",,27.45,79.2666666667
654,Shavdar,,Shavdar,,,,,region,,"40b, 49b, 59, 77, 86",,,
655,Shibirghān,x,Sheberghan,36,40,65,45,,,"57, 122, 165",,36.6666666667,65.75
656,Sherkot,,Sherkot,,,,,,? on the Jhelum,225,,,
657,Shibartu Pass,x,Shibartu Pass,34,44,67,27,,,"130b, 155, 183b, 195b, 202b",,34.7333333333,67.45
658,Shimitu,?,Shimitu,36,2,67,40,,,123,,36.0333333333,67.6666666667
659,Shiraz,,Shiraz,,,,,,suburb of Samarkand,"10, 38b–39b, 44, 55b, 59b, 81b",,,
660,Shirukan,,Shirukan,,,,,,?,234b,,,
661,Sh’niz,,Sh’niz,,,,,water,,158,,,
662,Shunqarkhana,,Shunqarkhana,,,,,mountain,? Yar Yaylagh,82b,,,
663,Shutur Gardan,,Shutur Gardan,,,,,,Samarkand,"91b, 92b",,,
664,Sialkot,x,Sialkot,32,30,74,31,,,"59b, 254, 255, 255b, 257b, 292",,32.5,74.5166666667
665,Sibi,x,Sibi,29,33,67,53,,,152165,,29.55,67.8833333333
667,Sikandarābād,x,Sikandarabad,28,28,77,42,,,331b,,28.4666666667,77.7
668,"Sikandarpur, Uttar Pradesh",x,Sikandarpur,26,3,84,3,,,"370b, 376, 376b",,26.05,84.05
669,Sikandra Rao,x,Sikandra,27,41,78,23,,,331,,27.6833333333,78.3833333333
670,Fatehpur Sīkri,x,Sikri,27,6,77,40,,,"273b, 291b, 310, 312b, 328b, 330, 330b, 331b, 337b, 344b",,27.1,77.6666666667
671,Simnan,,Simnan,,,,,,Iran,3,,,
672,Sinjit,,Sinjit,,,,,,a kotal over the northern end of the Paghman range,"125, 240",,,
673,Sirhind,x,Sirhind,30,38,76,27,,,"225b, 257, 261b, 272b—273b, 292, 329, 355b",Sihrind,30.6333333333,76.45
674,Sirkay,,Sirkay,,,,,,? Murghab,205,,,
675,Sivalik Parbat,,Sivalik Parbat,,,,,mountain,,"272b, 273",,,
676,Siwa,,Siwa,,,,,,? Laghman,214b,,,
677,Siya Sang Meadow,,Siya Sang Meadow,,,,,,Kabul,128b,,,
678,Sohan,,Sohan,,,,,water,,"223, 223b, 230b, 231",,,
679,So'x,x,Sokh,39,57,71,8,,,"3b, 352b",,39.95,71.1333333333
680,Son,,Son,,,,,water,,"364b, 369b, 370",,,
681,Song Qorgan Meadow,,Song Qorgan Meadow,,,,,,Kabul,"128b, 216",,,
682,Dara-i-Suf,x,"Suf, Dara-i",35,55,67,17,,,141,,35.9166666667,67.2833333333
683,Sufan,,Sufan,,,,,,Fergana,61b,,,
684,Sughd,,Sughd,,,,,region,,"38, 49b, 86, 95",,,
685,Rabat-i-Sughd,,"Sughd, Rabat-i",,,,,,Samarkand,69,,,
686,Suhjana,,Suhjana,,,,,,? Gwalior,344,,,
687,Sultaniyya,,Sultaniyya,,,,,,"Azerbaijan, Iran",139,,,
688,Sultanpur Lodhi,x,Sultanpur,31,13,75,12,,,"257, 260",Sultanpur,31.2166666667,75.2
689,Sulţānpūr-e Suflá,x,Sultanpur,34,25,70,19,,,"242b, 244b, 252",Sultanpur,34.4166666667,70.3166666667
690,Sunām,x,Sunam,30,8,75,52,,,262,,30.1333333333,75.8666666667
691,Sunargh,,Sunargh,,,,,,? near Toda Bhim,327b,,,
692,Robat-i-Surkh,,"Surkh, Robat-i",,,,,,between Khurd Kabul and Quruq Say,213b,,,
693,Surkhab River,,Surkhab,,,,,water,Afghanistan,"233, 123, 130b, 202b","Qïzïl Su,Red River,Surkhrud",,
694,Surkhrud River,,Surkhrud,,,,,water,,"132b, 142, 233, 142, 123, 130b, 202b","Qïzïl Su,Red River",,
695,Susan,,Susan,,,,,,?,249b,,,
696,Sutlej River,x,Sutlej,,,,,water,,"225b, 257, 273, 292",,,
697,Swat,,Swat,,,,,region,,"131b, 134, 140b, 219b, 220b-221b, 236, 236b, 242b, 243b, 244, 250, 277-78, 286, 286b",,,
698,Swati,,Swati,,,,,,?,222b,Kargkhana,,
699,Syrian Arab Republic,x,Syria,,,,,region,,50,,,
700,Tabriz,,Tabriz,,,,,,Azerbaijan,"10, 129b, 139",,,
701,Tahangarh,,Tahangarh,,,,,,"Karauli, Rajputana",303b,,,
702,Takana,,Takana,,,,,,,165,,,
703,Talar lawn,,Talar lawn,,,,,,Kabul,237,,,
704,Taloqan,x,Taligan,36,44,69,33,,,"35, 122b",,36.7333333333,69.55
705,Tang Ab,,Tang Ab,,,,,,? Khodzhent,60b,,,
706,Tānk,x,Tank,32,12,70,23,,,148,,32.2,70.3833333333
707,Tarnak,,Tarnak,,,,,water,,213b,,,
708,Tash Robat,,Tash Robat,,,,,,,188,,,
709,Tashkent,x,Tashkent,41,20,69,18,,,"3b, 6, 8, 8b, 12, 13b, 19-20, 45, 54b, 55b, 71b, 72, 96b, 99b, 100, 102-103b, 105, 234b, 347",,41.3333333333,69.3
710,Tatta,x,Tatta,24,45,67,56,,Sind,"273, 330",,24.75,67.9333333333
711,Taykhan,,Taykhan,,,,,,,122b,,,
712,Tazi,x,Tazi,32,23,67,16,,,158,,32.3833333333,67.2666666667
713,Täkkä Segritkü,,Täkkä Segritkü,,,,,,,8,,,
714,Teba Meadow,,Teba Meadow,,,,,,Kabul,"127b, 128, 130, 157b, 162",,,
715,Temür Beg’s Langar,,Temür Beg’s Langar,,,,,,,"196b, 197",,,
716,Tirmiz,x,Termez,37,14,67,16,city,,"20b, 26b, 27b, 28, 33, 44, 45, 120b, 122, 159, 356b",,37.2333333333,67.2666666667
717,Thal,x,Thal,33,22,70,33,,,147b,,33.3666666667,70.55
718,Tibet,x,Tibet,,,,,region,,273,,,
719,Tijāra,x,Tijara,27,56,76,55,,,"326, 326b, 381",,27.9333333333,76.9166666667
720,Muzaffarpur,x,Tirhut,,,,,region,"mod. Muzaffarpur, Bengal",293,,,
721,Tirmuhani,,Tirmuhani,,,,,,,"377, 381",,,
722,Toda Bhim,x,Toda Bhim,26,55,76,49,,,"308, 327b",Toda,26.9166666667,76.8166666667
723,Tons,,Tons,,,,,water,,"364, 378b",,,
724,Top,,Top,,,,,,? between Ajar and the Balkhab,184b,,,
725,Toqbay,,Toqbay,,,,,,,197a,,,
726,Toquz Ölüm fords,,Toquz Ölüm fords,,,,,,,122b,,,
727,Tota,,Tota,,,,,,?,344b,,,
728,Transoxiana,,Transoxiana,,,,,region,,"2, 3b, 36, 44b, 45, 48b, 49, 50, 270, 346",,,
729,Tul,,Tul,,,,,,,"130, 130b",,,
730,Tun,,Tun,,,,,,Khurasan,"185, 188",,,
731,Turfan,,Turfan,,,,,,Chinese Turkistan,102,,,
732,Turkestan (region),x,Turkistan,,,,,region,,"8, 9b, 28b, 43b, 44, 84, 86, 129",Turkistan,,
733,Turkestan,x,Turkistan City,43,18,68,15,,,"2, 22b",Turkistan City,43.3,68.25
734,Tus,,Tus,,,,,,Khurasan,301b,,,
735,Tutkavul,,Tutkavul,,,,,,n of Kabul,197b,,,
736,Tutluq,,Tutluq,,,,,,? Andizhan,105b,,,
737,Tutumdara,?,Tutumdara,35,5,69,12,,,360,,35.0833333333,69.2
738,Uchyar,x,Uchyar,39,54,71,4,,,"3b, 4, 352b",Hushyar,39.9,71.0666666667
739,Ujjain,x,Ujjain,23,11,75,46,,,46b,,23.1833333333,75.7666666667
740,Ulabatu,,Ulabatu,,,,,water,? Katawaz,"203, 203b",,,
741,Ulughtu,,Ulughtu,,,,,,? on the Kabul,251b,,,
742,Uqabayn,,Uqabayn,,,,,mountain,Kabul,128b,,,
743,Istaravshan,x,Ura-Tyube,39,55,69,1,,,"8, 8b, 13, 13b, 14b, 16b, 18, 19b, 55b, 59, 60, 78, 78b, 86b, 91, 96, 96b, 97, 99, 100, 101",Ura-Tyube,39.9166666667,69.0166666667
744,Urgench,,Urgench,,,,,,Khwarazm,168,,,
745,Urgut,x,Urgut,39,23,67,15,,,40b,,39.3833333333,67.25
746,Urwahi,,Urwahi,,,,,,Gwalior,341b—342b,,,
747,Ushtur Gardan,,Ushtur Gardan,,,,,,Samarkand,91b,,,
748,Ushturshahr,?,Ushturshahr,35,0,68,52,,,"125, 183b, 197b",,35,68.8666666667
750,Uzgen,x,Uzgen,40,46,73,18,,,"16, 17b, 63b, 64b, 66b, 70b, 72, 74, 77b, 103b, 104, 108b",,40.7666666667,73.3
751,Unjí,x,Ünchü Töpä,40,18,69,42,,maybe mod. Undzhi,67b,,40.3,69.7
752,Vijayanagar,,Vijayanagar,,,,,region,,272,,,
753,Vorukh,x,Vorukh,39,52,70,35,,,3b,,39.8666666667,70.5833333333
754,Tangī Waghjān,x,Waghjan Pass,34,9,69,5,,,238,,34.15,69.0833333333
755,Walīān,x,Walian,35,36,68,52,,,130b,,35.6,68.8666666667
756,Wasmand Fort,,Wasmand Ford,,,,,,Samarkand,"83b, 84",,,
757,Wersek,x,Wersek,34,20,70,47,,,294,,34.3333333333,70.7833333333
758,Yada Bir,,Yada Bir,,,,,,? near Ali Masjid,"233, 243, 252b",,,
759,Yaftal-e Suflá,x,Yaftal,37,16,70,26.5,region,"37'[10-22], 70'[16-37]",202b,,37.2666666667,70.4416666667
760,Yaghma,,Yaghma,,,,,,Tashkent-Sayram,102,,,
761,Yakāwlang,x,Yakawlang,34,44,66,58,,,"183b, 195",,34.7333333333,66.9666666667
762,Yak Langa Hill,,Yak Langa Hill,,,,,,Kabul,251b,,,
763,Yam,,Yam,,,,,,Samarkand,"39b, 40",,,
764,Yan Bulaq,,Yan Bulaq,,,,,,? Alishang-Kabul,251b,,,
765,Yangï Yol Defile,,Yangï Yol Defile,,,,,,Hindu Kush,130b,,,
766,Ya‘qub Deh,,Ya‘qub Deh,,,,,,4 mi se of Kabul,"128, 153b, 242, 251b",,,
767,Yar Yaylagh,,Yar Yaylagh,,,,,region,,"19b, 39, 49b, 55b, 59, 59b, 77, 79, 81b, 82b, 83",,,
768,Yassy Kechit Ford,,Yassy Kechit Ford,,,,,,Fergana,"14, 65",,,
769,Yay Yaylagh,,Yay Yaylagh,,,,,,Herat,162b,,,
770,Yeti Kent,,Yeti Kent,,,,,,Fergana,5b,,,
771,Yorí,x,Yori,39,30,67,52,,Yeri,82b,,39.5,67.8666666667
772,Zomin,x,Zaamin,39,58,68,24,,,"19, 38b, 59",,39.9666666667,68.4
773,Zabarqan,,Zabarqan,,,,,,? near Karnon,103b,,,
774,Zabulistan,,Zabulistan,,,,,region,,137b,,,
775,Zafar Fort,,Zafar Fort,,,,,,Badakhshan see also Shaf Tannur,"11, 154b, 308, 345b, 347, 154b",Shaf Tannur,,
776,Zahhak Fort,,Zahhak Fort,,,,,,Bamian,183b,,,
777,Zamma Yakhshï,,Zamma Yakhshï,,,,,,? N of Kabul,197b,,,
778,Zamin Dawar,,Zamin Dawar,,,,,region,,"14b, 42b, 172b, 204b, 211b, 212b",,,
779,Qaryah-ye Darah-ye Zang,x,"Zang, Dara-i",35,58,65,17,,,122,,35.9666666667,65.2833333333
780,Zardak Chöl,,Zardak Chöl,,,,,,? Sheberghan-Balkh,57,,,
781,Rabat-i-Zaurak,,"Zaurak, Rabat-i",,,,,,Andizhan,"106b, 234",,,
782,Dara-i-Zindan,?,"Zindan, Dara-i",36,13,68,3,,,"121, 141",,36.2166666667,68.05
783,Zirrin Pass,,Zirrin Pass,,,,,,,"194, 195",,,
784,Zurmat,x,Zurmat,33,25,69,7,region,,"19, 139, 139b, 153",,33.4166666667,69.1166666667
785,Chaharrahall,,Chaharrahall,,,,,"quarter, gate, street, bridge",Samarkand,"37, 80",Chaharrahall Gate,,
786,Charmgaran Gate,,Charmgaran Gate,,,,,"quarter, gate, street, bridge",Kabul,127,Leatherworkers' Gate,,
787,Chupan Bridge,,Chupan Bridge,,,,,"quarter, gate, street, bridge",Ura-Tybe,78,,,
788,Firoza Gate,,Firoza Gate,,,,,"quarter, gate, street, bridge",Samarkand,"45b, 84, 92, 93b",Turquoise Gate,,
789,Ghar-i-Ashiqan,,Ghar-i-Ashiqan,,,,,"quarter, gate, street, bridge",Samarkand,"40b, 43b, 84, 94b",Lovers' Cave,,
790,Gazaristan Gate,,Gazaristan Gate,,,,,"quarter, gate, street, bridge",Samarkand,"92b, 93b",,,
791,Hathi Pol,,Hathi Pol,,,,,"quarter, gate, street, bridge",Gwalior,"340, 340b, 341b, 343b",Elephant Gate,,
792,"Iron Gate, Kabul",,Iron Gate,,,,,"quarter, gate, street, bridge",Kabul,216b,,,
793,"Iron Gate, Samarkand",,Iron Gate,,,,,"quarter, gate, street, bridge",Samarkand,"44b, 45b, 84b, 85, 91b, 92, 92b",,,
794,Kohak Hill,,Kohak Hill,,,,,"quarter, gate, street, bridge",Samarkand,47,,,
795,Kucha-i-Bagh,,Kucha-i-Bagh,,,,,"quarter, gate, street, bridge",Kabul,"127, 127b",,,
797,Kuy-i Payan,,Kuy-i Payan,,,,,"quarter, gate, street, bridge",Samarkand,94b,,,
798,Laklakan,,Laklakan,,,,,"quarter, gate, street, bridge",Samarkand,94,,,
799,Mashur Gate,,Mashur Gate,,,,,"quarter, gate, street, bridge",Kandahar,211b,,,
800,Maturid quarter,,Maturid quarter,,,,,"quarter, gate, street, bridge",,45,,,
801,Mirza Bridge,,Mirza Bridge,,,,,"quarter, gate, street, bridge",Samarkand,43,,,
802,Muhammad Chap Bridge,,Muhammad Chap Bridge,,,,,"quarter, gate, street, bridge",Samarkand,"42b, 43",,,
803,Mughak Bridge,,Mughak Bridge,,,,,"quarter, gate, street, bridge",Samarkand,"40, 40b, 84",,,
804,Mulla Baba Bridge,,Mulla Baba Bridge,,,,,"quarter, gate, street, bridge",Kabul,"198, 247",,,
805,Needlemakers’ Gate,,Needlemakers’ Gate,,,,,"quarter, gate, street, bridge",Samarkand,"92b, 93, 93b",,,
806,Qutlugh-Qadam’s tomb,,Qutlugh-Qadam’s tomb,,,,,"quarter, gate, street, bridge",Kabul,"126b, 127, 130",,,
807,Shaykhzada Gate,,Shaykhzada Gate,,,,,"quarter, gate, street, bridge",Samarkand,"43, 90b, 92, 92b, 95",,,
808,Sultan Pol,,Sultan Pol,,,,,"quarter, gate, street, bridge",Gwalior,342b,,,
809,Tarnaw,,Tarnaw,,,,,"quarter, gate, street, bridge",Samarkand,40,,,
810,Tughluqabad,,Tughluqabad,,,,,"quarter, gate, street, bridge",Delhi,268,,,
811,Badalgarh,,Badalgarh,,,,,"kiosk, pavilion, mosque",Gwalior,341b,,,
812,"Bustan Saray, Samarkand",,Bustan Saray,,,,,"kiosk, pavilion, mosque",Samarkand,"36b, 44b, 85",,,
813,"Bustan Saray, Kabul",,Bustan Saray,,,,,"kiosk, pavilion, mosque",Kabul,"160, 162",,,
814,Gemini Mosque,,Gemini Mosque,,,,,"kiosk, pavilion, mosque",Osh,3,,,
815,"Jahannuma, Bhera",,Jahannuma,,,,,"kiosk, pavilion, mosque",Bhera,226,,,
816,"Jahannuma, Delhi",,Jahannuma,,,,,"kiosk, pavilion, mosque",Delhi,273,,,
817,"Jahannuma, Darunta",,Jahannumay,,,,,"kiosk, pavilion, mosque",near Darunta,249,Jahannumay,,
818,Khirskhana,,Khirskhana,,,,,"kiosk, pavilion, mosque",“Bear House” Kabul,247,,,
819,Khwaja Khizr Masjid,,Khwaja Khizr Mosque,,,,,"kiosk, pavilion, mosque",Samarkand,92,,,
820,Kök Saray,,Kök Saray,,,,,"kiosk, pavilion, mosque",Samarkand,"23b, 36b, 37, 45b",,,
821,Laqlaqa Masjid,,Laqlaqa Mosque,,,,,"kiosk, pavilion, mosque",Samarkand,47b,,,
822,Muqatta Masjid,,Muqatta Mosque,,,,,"kiosk, pavilion, mosque",Samarkand,46b,,,
823,Muqaqqakhana,,Muqaqqakhana,,,,,"kiosk, pavilion, mosque",Herat,190b,,,
824,Tarabkhana,,Tarabkhana,,,,,"kiosk, pavilion, mosque",Herat,"188b, 190",,,
825,Bagh-i-Banafsha,,"Banafsha, Bagh-i",,,,,garden,Kabul,"233b, 246, 247",,,
826,"Bagh-i-Bihisht, Kabul",,"Bihisht, Bagh-i",,,,,garden,Kabul,"198, 199, 200",,,
827,"Bagh-i-Bihisht, Samarkand",,"Bihisht, Bagh-i",,,,,garden,Samarkand,46,,,
828,"Chaharbagh, Agra",,Chaharbagh,,,,,garden,Agra,"300, 300b, 307, 357",,,
829,"Chaharbagh, Andizhan",,Chaharbagh,,,,,garden,Andizhan,15b,,,
830,"Chaharbagh, Chitar",,Chaharbagh,,,,,garden,Chitar?,262,,,
831,"Chaharbagh, Gwalior",,Chaharbagh,,,,,garden,Gwalior,"340, 343b, 344",,,
832,"Chaharbagh, Kabul",,Chaharbagh,,,,,garden,Kabul,"126, 159, 160, 162, 198b, 201, 215b, 216, 234b, 235b, 247, 248",,,
833,"Chaharbagh, Samarkand",,Chaharbagh,,,,,garden,Samarkand,"47b, 48b",,,
834,"Bagh-i-Chanar, Kabul",,Chanar Bagh,,,,,garden,Kabul,"236b, 237, 248",,,
835,"Bagh-i-Chanar, Samarkand",,"Chanar, Bagh-i",,,,,garden,Samarkand,46,,,
836,Bagh-i-Dilgusha,,"Dilgusha, Bagh-i",,,,,garden,Samarkand,"45b, 48b",,,
837,Farrukhzad Beg’s Chaharbagh,,Farrukhzad Beg’s Chaharbagh,,,,,garden,Kandahar,"211, 212",,,
838,Bagh-i-Fath,,"Fath, Bagh-i",,,,,garden,Sikri,330,,,
839,Hafiz Beg’s Charbagh,,Hafiz Beg’s Charbagh,,,,,garden,Andizhan,66b,,,
840,Hasht Bihisht Bagh,,Hasht Bihisht Bagh,,,,,garden,Agra,"307b, 330, 344b, 353b, 380b",,,
841,Haydar Beg’s Bagh,,Haydar Beg’s Bagh,,,,,garden,Shahrukhiyya,31b,,,
842,Haydar Taqi’s Bagh,,Haydar Taqi’s Bagh,,,,,garden,Kabul,"126b, 237 ",,,
843,Istalif Bagh,,Istalif Bagh,,,,,garden,,248,,,
844,Bagh-i-Jahanara,,"Jahanara, Bagh-i",,,,,garden,Herat,"188b, 190b",,,
845,Bagh-i-Kalan,,"Kalan, Bagh-i",,,,,garden,Istalif,136b,,,
846,Khalifa’s Bagh,,Khalifa’s Bagh,,,,,garden,Kabul,198,,,
847,Bagh-i-Khalwat,,"Khalwat, Bagh-i",,,,,garden,Kabul,"216, 235",,,
848,"Bagh-i-Khiaban, Herat",,"Khiaban, Bagh-i",,,,,garden,Herat,191,,,
849,"Bagh-i-Khiaban, Kabul",,"Khiaban, Bagh-i",,,,,garden,Kabul,360,,,
850,Maliks’ Bagh,,Maliks’ Bagh,,,,,garden,“Maliks’ ?” Alingar,251,,,
851,Bagh-i-Maydan,,"Maydan, Bagh-i",,,,,garden,Samarkand,"42b, 47, 47b, 48b, 80",,,
852,Mulla Baba’s Bagh,,Mulla Baba’s Bagh,,,,,garden,Kabul,198,,,
853,Naqsh-i-Jahan,,Naqsh-i-Jahan,,,,,garden,Samarkand,46,,,
854,"Bagh-i-Naw, Herat",,"Naw, Bagh-i",,,,,garden,Herat,188,,,
855,"Bagh-i-Naw, Samarkand",,"Naw, Bagh-i",,,,,garden,Samarkand,"36, 88",,,
856,Bagh-i-Nawrozi,,"Nawrozi, Bagh-i",,,,,garden,Kabul,157,,,
857,"Nazargah, Herat",,Nazargah,,,,,garden,Herat,191,,,
858,"Nazargah, Tutumdara",,Nazargah,,,,,garden,Tutumdara,360,,,
859,Nilufar Bagh,,Nilufar Bagh,,,,,garden,Dholpur,"356, 356b",,,
860,Qush Tegirmän,,Qush Tegirmän,,,,,garden,Andizhan,108,,,
861,Bagh-i-Safa,,"Safa, Bagh-i",,,,,garden,?,369,,,
862,"Bagh-i-Safa, Bhera",,"Safa, Bagh-i",,,,,garden,Bhera,224,,,
863,Bagh-i-Safed,,"Safed, Bagh-i",,,,,garden,Herat,188b,,,
864,Bagh-i-Shimal,,"Shimal, Bagh-i",,,,,garden,Samarkand,46,,,
865,Turak Charbagh,,Turak Charbagh,,,,,garden,Samarkand,"94b, 100b",,,
866,Bagh-i-Wafa,,"Wafa, Bagh-i",,,,,garden,Adinapur,"132, 233, 242b, 245, 249, 249b, 252",,,
867,Bagh-i-Yorunchqa,,"Yorunchqa, Bagh-i",,,,,garden,Kabul,216,,,
868,Bagh-i-Zaghan,,"Zaghan, Bagh-i",,,,,garden,Herat," 85b, 165",,,
869,Zarafshan Bagh,,Zarafshan Bagh,,,,,garden,Agra,35,,,
